BSN;Name;PLZ;Adresse;City;Latitude;Longitude;;;;;;;;;;;;;
07G36;Grundschule am Dielingsgrund;12305;Dielingsgrund 35;Berlin;52.412;13.40822;;;;;;;;;;;;;
06P05;Emil-Molt-Schule;14165;Claszeile 60;Berlin;52.418;13.25846;;;;;;;;;;;;;
07Y05;Luise-Henriette-Gymnasium;12105;Kurfürstenstr. 53-54;Berlin;52.448;13.3839;;;;;;;;;;;;;
02P05;Fachschulen der Stiftung SPI Berlin;10963;Hallesches Ufer 32-38;Berlin;52.499;13.38644;;;;;;;;;;;;;
02G32;Clara-Grunwald-Grundschule;10963;Hallesche Str. 24;Berlin;52.501;13.38485;;;;;;;;;;;;;
11Y11;Immanuel-Kant-Gymnasium;10317;Lückstr. 63;Berlin;52.502;13.48943;;;;;;;;;;;;;
01P25;Internationale Lomonossow-Schule Berlin (Gemeinschaftsschule);10785;Genthiner Str. 20;Berlin;52.504;13.3594;;;;;;;;;;;;;
02G10;Modersohn-Grundschule;10245;Niemannstr. 3;Berlin;52.507;13.46017;;;;;;;;;;;;;
04G07;Ludwig-Cauer-Grundschule;10587;Cauerstr. 36-38;Berlin;52.516;13.31605;;;;;;;;;;;;;
11S02;Schule am Fennpfuhl;10369;Alfred-Jung-Str. 19;Berlin;52.524;13.4768;;;;;;;;;;;;;
11S12;Nils-Holgersson-Schule;10369;Otto-Marquardt-Str. 12-14;Berlin;52.534;13.4722;;;;;;;;;;;;;
03G15;Schule am Senefelderplatz;10435;Schönhauser Allee 165;Berlin;52.535;13.41202;;;;;;;;;;;;;
10G17;Beatrix-Potter-Grundschule;12629;Ludwigsfelder Str. 7;Berlin;52.547;13.58954;;;;;;;;;;;;;
10G08;Wilhelm-Busch-Grundschule;12679;Parsteiner Ring 24/46;Berlin;52.553;13.58132;;;;;;;;;;;;;
12G12;Borsigwalder Grundschule;13509;Miraustr. 100;Berlin;52.588;13.30507;;;;;;;;;;;;;
09G29;Schmöckwitzer Insel-Schule (Grundschule);12527;Adlergestell 776;Berlin;52.37617;13.64782;;;;;;;;;;;;;
07Y08;Ulrich-von-Hutten-Gymnasium;12307;Rehagener Str. 35-37;Berlin;52.38588;13.40403;;;;;;;;;;;;;
07G29;Käthe-Kollwitz-Grundschule;12307;Mellener Str. 38-42;Berlin;52.38622;13.40489;;;;;;;;;;;;;
07G35;Nahariya-Grundschule;12309;Nahariyastr. 13-17;Berlin;52.3912;13.41959;;;;;;;;;;;;;
07Y09;Georg-Büchner-Gymnasium;12305;Lichtenrader Damm 224;Berlin;52.39261;13.40551;;;;;;;;;;;;;
07K02;Carl-Zeiss-Schule;12305;Barnetstr. 12-14;Berlin;52.3943;13.40404;;;;;;;;;;;;;
07K04;Theodor-Haubach-Schule;12305;Grimmstr. 9-11;Berlin;52.39821;13.4038;;;;;;;;;;;;;
07G30;Annedore-Leber-Grundschule;12305;Halker Zeile 137-149;Berlin;52.39842;13.40144;;;;;;;;;;;;;
09Y04;Anne-Frank-Gymnasium;12524;Uranusstr. 15-17;Berlin;52.39994;13.52455;;;;;;;;;;;;;
07G26;Grundschule im Taunusviertel;12309;Wiesbadener Str. 20;Berlin;52.40046;13.41949;;;;;;;;;;;;;
08G37;Rose-Oehmichen-Schule (Grundschule);12355;Lieselotte-Berger-Str. 65;Berlin;52.40107;13.50205;;;;;;;;;;;;;
09K03;Fritz-Kühn-Schule (Integrierte Sekundarschule);12526;Dahmestr. 45;Berlin;52.40125;13.5645;;;;;;;;;;;;;
08Y06;Hannah-Arendt-Gymnasium;12355;Elfriede-Kuhr-Str. 17;Berlin;52.40386;13.50816;;;;;;;;;;;;;
07G32;Bruno-H.-Bürgel-Grundschule;12305;Rackebüller Weg 70;Berlin;52.40492;13.40251;;;;;;;;;;;;;
09G14;Schule am Buntzelberg (Grundschule);12526;Schulzendorfer Str. 112;Berlin;52.40585;13.5744;;;;;;;;;;;;;
07K03;Gustav-Heinemann-Oberschule;12279;Waldsassener Str. 62;Berlin;52.40642;13.34747;;;;;;;;;;;;;
09G11;Schule am Pegasuseck (Grundschule);12524;Pegasuseck 5;Berlin;52.40645;13.52915;;;;;;;;;;;;;
09G15;Schule am Mohnweg (Grundschule);12524;Mohnweg 20;Berlin;52.40717;13.53723;;;;;;;;;;;;;
09G13;Schule am Altglienicker Wasserturm (Grundschule);12524;Sachsenstr. 22;Berlin;52.41068;13.55426;;;;;;;;;;;;;
06B02;Louise-Schroeder-Schule (OSZ Bürowirtschaft und Verwaltung);12207;Lippstädter Str. 9-11;Berlin;52.4114;13.30558;;;;;;;;;;;;;
08G11;Schliemann-Grundschule;12355;Groß-Ziethener Chaussee 81;Berlin;52.41173;13.48482;;;;;;;;;;;;;
07G34;Marienfelder Schule (Grundschule);12279;Erbendorfer Weg 13;Berlin;52.41201;13.35242;;;;;;;;;;;;;
06G30;Mercator-Grundschule;12207;Mercatorweg 8-10;Berlin;52.41223;13.31706;;;;;;;;;;;;;
08G25;Michael-Ende-Schule (Grundschule);12355;Neuhofer Str. 41;Berlin;52.41345;13.50997;;;;;;;;;;;;;
07K05;Solling-Schule;12277;Alt-Marienfelde 52;Berlin;52.41399;13.3653;;;;;;;;;;;;;
09G20;Müggelheimer Schule (Grundschule);12559;Odernheimer Str. 28;Berlin;52.4145;13.66718;;;;;;;;;;;;;
06G05;Conrad-Schule (Grundschule);14109;Schulstr. 4;Berlin;52.41484;13.1468;;;;;;;;;;;;;
07P06;Katholische Schule Sankt Hildegard;12277;Malteserstr. 171 A;Berlin;52.41554;13.35928;;;;;;;;;;;;;
08K04;Heinrich-Mann-Schule;12353;Gerlinger Str. 22;Berlin;52.41565;13.43319;;;;;;;;;;;;;
07G28;Kiepert-Grundschule;12277;Prechtlstr. 21-23;Berlin;52.4159;13.37357;;;;;;;;;;;;;
08Y05;Leonardo-da-Vinci-Gymnasium;12349;Haewererweg 35;Berlin;52.41642;13.42582;;;;;;;;;;;;;
07P04;Katholische Schule Sankt Alfons (Grundschule);12249;Tennstedter Str. 1;Berlin;52.41668;13.35093;;;;;;;;;;;;;
06G29;Grundschule am Karpfenteich;12209;Hildburghauser Str. 135;Berlin;52.41742;13.33287;;;;;;;;;;;;;
07S03;Steinwald-Schule;12277;Hanielweg 7-9;Berlin;52.41776;13.36462;;;;;;;;;;;;;
09G10;Schule am Berg (Grundschule);12524;Köpenicker Str. 31;Berlin;52.41872;13.53801;;;;;;;;;;;;;
08K05;Clay-Schule;12355;Bildhauerweg 9;Berlin;52.41905;13.48873;;;;;;;;;;;;;
08G30;Schule am Sandsteinweg (Grundschule);12349;Hornblendeweg 2;Berlin;52.41922;13.40546;;;;;;;;;;;;;
06G02;Süd-Grundschule;14165;Claszeile 56;Berlin;52.41925;13.25777;;;;;;;;;;;;;
09K09;Grünauer Gemeinschaftsschule;12527;Walchenseestr. 40;Berlin;52.41935;13.57602;;;;;;;;;;;;;
06P18;Bilinguale Schule Phorms Berlin Süd;14167;Harry-S.-Truman-Allee 3;Berlin;52.42034;13.28388;;;;;;;;;;;;;
06G09;Dreilinden-Grundschule;14109;Dreilindenstr. 65;Berlin;52.42038;13.18549;;;;;;;;;;;;;
08G28;Matthias-Claudius-Schule (Grundschule);12355;Köpenicker Str. 148;Berlin;52.42045;13.50113;;;;;;;;;;;;;
06Y04;Dreilinden-Gymnasium;14109;Dreilindenstr. 49;Berlin;52.42056;13.18782;;;;;;;;;;;;;
08G26;Christoph-Ruden-Schule (Grundschule);12349;An den Achterhöfen 13;Berlin;52.42072;13.43487;;;;;;;;;;;;;
08G31;Janusz-Korczak-Schule (Grundschule);12353;Wildhüterweg 5;Berlin;52.42108;13.45738;;;;;;;;;;;;;
08S07;Schule am Bienwaldring;12349;Breitunger Weg 1;Berlin;52.42154;13.42524;;;;;;;;;;;;;
06P08;Sancta-Maria-Schule der Hedwigschwestern;14109;Dreilindenstr. 24-26;Berlin;52.4217;13.19366;;;;;;;;;;;;;
08S04;Schule am Zwickauer Damm;12353;Zwickauer Damm 16-22;Berlin;52.42219;13.48163;;;;;;;;;;;;;
06G22;Giesensdorfer Grundschule;12207;Ostpreußendamm 63;Berlin;52.42223;13.31104;;;;;;;;;;;;;
06G10;Grundschule am Buschgraben;14165;Ludwigsfelder Str. 43-47;Berlin;52.42241;13.24358;;;;;;;;;;;;;
08K02;Hermann-von-Helmholtz-Schule;12353;Wutzkyallee 68;Berlin;52.42242;13.47276;;;;;;;;;;;;;
06G08;Schweizerhof-Grundschule;14167;Leo-Baeck-Str. 28-30;Berlin;52.42246;13.26455;;;;;;;;;;;;;
08G34;Lisa-Tetzner-Schule (Grundschule);12353;Hasenhegerweg 12;Berlin;52.42253;13.44474;;;;;;;;;;;;;
08S05;Schule am Hasenhegerweg;12353;Hasenhegerweg 12;Berlin;52.42253;13.44474;;;;;;;;;;;;;
06G27;Grundschule am Königsgraben;12249;Gallwitzallee 136-144;Berlin;52.42311;13.34735;;;;;;;;;;;;;
09P07;Evangelische Schule Köpenick (Gymnasium);12557;Grüne Trift 169;Berlin;52.42339;13.59233;;;;;;;;;;;;;
08G33;Schule am Fliederbusch (Grundschule);12357;Kornradenstr. 2;Berlin;52.42362;13.48717;;;;;;;;;;;;;
08P02;Katholische Schule Sankt Marien (Grundschule);12353;Hugo-Heimann-Str. 2;Berlin;52.42378;13.462;;;;;;;;;;;;;
08G16;Hugo-Heimann-Schule (Grundschule);12353;Hugo-Heimann-Str. 20;Berlin;52.4253;13.45693;;;;;;;;;;;;;
06G24;Grundschule unter den Kastanien;12209;Kastanienstr. 6 -8;Berlin;52.42568;13.32471;;;;;;;;;;;;;
06K01;John-F.-Kennedy-Schule;14167;Teltower Damm 87-93;Berlin;52.42576;13.26192;;;;;;;;;;;;;
08K13;Gemeinschaftsschule Campus Efeuweg;12357;Efeuweg 34;Berlin;52.42725;13.47322;;;;;;;;;;;;;
08S09;Schule an der Windmühle;12349;Buckower Damm 176;Berlin;52.42742;13.43449;;;;;;;;;;;;;
09P06;Montessori Campus Berlin Köpenick (Gemeinschaftsschule);12557;Köpenzeile 125;Berlin;52.42783;13.59503;;;;;;;;;;;;;
09P11;Berufsbildungszentrum Chemie;12489;Adlergestell 333;Berlin;52.42836;13.55251;;;;;;;;;;;;;
09G16;Wendenschloß-Schule (Grundschule);12557;Köpenzeile 123;Berlin;52.42844;13.59532;;;;;;;;;;;;;
06K04;Bröndby-Schule (Integrierte Sekundarschule);12249;Dessauerstr. 63;Berlin;52.42848;13.34579;;;;;;;;;;;;;
06Y02;Droste-Hülshoff-Gymnasium;14165;Schönower Str. 8;Berlin;52.42882;13.2572;;;;;;;;;;;;;
06A05;VHS Steglitz-Zehlendorf - Victor-Gollancz;12207;Goethestraße 9-11;Berlin;52.42928;13.31645;;;;;;;;;;;;;
08K01;Walter-Gropius-Schule (Gemeinschaftsschule);12351;Fritz-Erler-Allee 86;Berlin;52.42934;13.46349;;;;;;;;;;;;;
08B02;Lise-Meitner-Schule (OSZ Chemie, Physik und Biologie);12351;Lipschitzallee 25;Berlin;52.42963;13.47265;;;;;;;;;;;;;
08G22;Schule am Regenweiher (Grundschule);12351;Johannisthaler Chaussee 328;Berlin;52.4298;13.45141;;;;;;;;;;;;;
06B03;OSZ Bürowirtschaft 1;12207;Ostpreußendamm 40;Berlin;52.43031;13.31701;;;;;;;;;;;;;
06P21;Internationale Montessorischule Berlin (Grundschule);14109;Zum Heckeshorn 38;Berlin;52.43033;13.16322;;;;;;;;;;;;;
06G21;Paul-Schneider-Grundschule;12249;Seydlitzstr. 30-34;Berlin;52.4306;13.34025;;;;;;;;;;;;;
08G29;Wetzlar-Schule (Grundschule);12351;Tischlerzeile 34;Berlin;52.43094;13.44331;;;;;;;;;;;;;
06Y01;Schadow-Gymnasium;14163;Beuckestr. 27-29;Berlin;52.43155;13.25482;;;;;;;;;;;;;
06G03;Johannes-Tews-Grundschule;14129;Wasgenstr. 50;Berlin;52.43156;13.21268;;;;;;;;;;;;;
06Y05;Werner-von-Siemens-Gymnasium;14129;Beskidenstr. 3;Berlin;52.43202;13.21161;;;;;;;;;;;;;
06G33;Friedrich-Drake-Grundschule;12205;Drakestr. 80;Berlin;52.43247;13.30784;;;;;;;;;;;;;
06G28;Ludwig-Bechstein-Grundschule;12249;Halbauer Weg 25;Berlin;52.43251;13.36244;;;;;;;;;;;;;
06Y06;Beethoven-Gymnasium;12249;Barbarastr. 9;Berlin;52.43257;13.34223;;;;;;;;;;;;;
08P17;DAA - Deutsche Angestellten-Akademie GmbH;12349;Buckower Damm 114;Berlin;52.43338;13.43473;;;;;;;;;;;;;
07G37;Ikarus-Grundschule;12107;Körtingstr. 45;Berlin;52.43357;13.3837;;;;;;;;;;;;;
06G25;Clemens-Brentano-Grundschule;12205;Kommandantenstr. 83-84;Berlin;52.43367;13.29318;;;;;;;;;;;;;
09G26;Schule an den Püttbergen (Grundschule);12589;Fürstenwalder Allee 182;Berlin;52.43367;13.70304;;;;;;;;;;;;;
06Y11;Goethe-Gymnasium Lichterfelde;12205;Drakestr. 72-74;Berlin;52.43459;13.30544;;;;;;;;;;;;;
06Y12;Willi-Graf-Gymnasium;12207;Ostpreußendamm 166;Berlin;52.43472;13.32112;;;;;;;;;;;;;
06P01;Katholische Schule Sankt Ursula (Grundschule);14169;Kleinaustr. 4;Berlin;52.43475;13.2645;;;;;;;;;;;;;
09K02;Anna-Seghers-Schule (Gemeinschaftsschule);12489;Radickestr. 43;Berlin;52.43517;13.54854;;;;;;;;;;;;;
06S03;Peter-Frankenfeld-Schule;12247;Wedellstr. 26;Berlin;52.4352;13.35497;;;;;;;;;;;;;
06Y10;Lilienthal-Gymnasium;12203;Ringstr. 2-3;Berlin;52.43579;13.31246;;;;;;;;;;;;;
06G01;Nord-Grundschule;14163;Potsdamer Str. 7;Berlin;52.43636;13.25711;;;;;;;;;;;;;
06P15;Oberlin-Seminar;12203;Tietzenweg 130;Berlin;52.43684;13.31256;;;;;;;;;;;;;
06K08;Max-von-Laue-Schule;12203;Dürerstr. 27;Berlin;52.43722;13.30572;;;;;;;;;;;;;
06G20;Alt-Lankwitzer Grundschule;12247;Schulstr. 17-21;Berlin;52.43736;13.3525;;;;;;;;;;;;;
06P02;Johanna-Gerdes-Grundschule;14163;Salzachstr. 4;Berlin;52.43785;13.22839;;;;;;;;;;;;;
09P15;W-I-R-Grundschule Pfefferwerk;12557;Grüne Trift 23 D;Berlin;52.43803;13.59029;;;;;;;;;;;;;
06G26;Käthe-Kruse-Grundschule;12203;Tietzenweg 108;Berlin;52.43815;13.31013;;;;;;;;;;;;;
06P20;Freie Schule Anne-Sophie Berlin;14169;Clayallee 328-334;Berlin;52.43819;13.26267;;;;;;;;;;;;;
09G09;Heide-Schule (Grundschule);12489;Florian-Geyer-Str. 87;Berlin;52.43845;13.54391;;;;;;;;;;;;;
07G27;Rudolf-Hildebrand-Grundschule;12107;Friedenstr. 23-25;Berlin;52.43874;13.38539;;;;;;;;;;;;;
06K11;Anna-Essinger-Gemeinschaftsschule;12203;Tietzenweg 101;Berlin;52.4388;13.30988;;;;;;;;;;;;;
09G18;Schule in der Köllnischen Vorstadt (Grundschule);12557;Rudower Str. 201;Berlin;52.43911;13.56448;;;;;;;;;;;;;
09G25;Müggelschlößchen-Schule (Grundschule);12559;Alfred-Randt-Str. 56;Berlin;52.43924;13.606;;;;;;;;;;;;;
06P13;Gemeinschaftsschule nach der Pädagogik Berthold Ottos;12203;Holbeinstr. 21;Berlin;52.43955;13.30597;;;;;;;;;;;;;
09G05;Schule am Ginkobaum (Grundschule);12487;Springbornstr. 250;Berlin;52.44013;13.49788;;;;;;;;;;;;;
08G27;Oskar-Heinroth-Schule (Grundschule);12359;Rohrdommelweg 1;Berlin;52.44031;13.47241;;;;;;;;;;;;;
08G13;Bruno-Taut-Schule (Grundschule);12359;Bruno-Taut-Ring 9C;Berlin;52.44047;13.44923;;;;;;;;;;;;;
09K08;Schule an der Dahme (Integrierte Sekundarschule);12557;Glienicker Str. 24-30;Berlin;52.44047;13.56721;;;;;;;;;;;;;
06G18;Athene-Grundschule;12205;Curtiusstr. 37;Berlin;52.44055;13.29058;;;;;;;;;;;;;
06P09;Caroline-von-Heydebrand-Schule;14129;Klopstockstr. 36-42;Berlin;52.4417;13.22602;;;;;;;;;;;;;
06G23;Kronach-Grundschule;12203;Moltkestr. 24-26;Berlin;52.44174;13.31276;;;;;;;;;;;;;
06B01;Peter-Lenné-Schule (OSZ Natur und Umwelt);14163;Hartmannsweilerweg 29;Berlin;52.44196;13.24889;;;;;;;;;;;;;
08S08;Schilling-Schule;12359;Paster-Behrens-Str. 81;Berlin;52.44277;13.44385;;;;;;;;;;;;;
09Y11;Emmy-Noether-Gymnasium;12559;Pablo-Neruda-Str. 6-7;Berlin;52.44278;13.5888;;;;;;;;;;;;;
06G06;Mühlenau-Grundschule;14195;Molsheimer Str. 7;Berlin;52.44318;13.27594;;;;;;;;;;;;;
06S01;Pestalozzi-Schule;14163;Hartmannsweilerweg 47;Berlin;52.44347;13.24842;;;;;;;;;;;;;
07G31;Carl-Sonnenschein-Grundschule;12109;Am Hellespont 4-6;Berlin;52.44385;13.40847;;;;;;;;;;;;;
09G19;Amtsfeld-Schule (Grundschule);12559;Pablo-Neruda-Str. 8;Berlin;52.44408;13.58871;;;;;;;;;;;;;
09K06;Hans-Grade-Schule (Integrierte Sekundarschule);12487;Heubergerweg 37;Berlin;52.4443;13.49886;;;;;;;;;;;;;
08B01;Annedore-Leber-Oberschule;12359;Paster-Behrens-Str. 88;Berlin;52.44464;13.44384;;;;;;;;;;;;;
09P12;Mosaik-Grundschule;12439;Adlergestell 133;Berlin;52.44474;13.5285;;;;;;;;;;;;;
07Y07;Eckener-Gymnasium;12105;Kaiserstr. 17-21;Berlin;52.44511;13.38048;;;;;;;;;;;;;
09Y05;Alexander-von-Humboldt-Gymnasium;12555;Oberspreestr. 173;Berlin;52.44521;13.5672;;;;;;;;;;;;;
06G07;Zinnowwald-Grundschule;14163;Wilskistr. 78;Berlin;52.44544;13.24668;;;;;;;;;;;;;
08Y03;Albert-Einstein-Gymnasium;12359;Parchimer Allee 109;Berlin;52.4455;13.44257;;;;;;;;;;;;;
07P13;Deutsch Skandinavische Gemeinschaftsschule;12105;Machonstr. 54;Berlin;52.44602;13.38213;;;;;;;;;;;;;
09A07;Flatow-Oberschule;12559;Birkenstr. 11;Berlin;52.4466;13.60236;;;;;;;;;;;;;
06P07;Parzival-Schule;14163;Quermatenweg 6;Berlin;52.44677;13.23381;;;;;;;;;;;;;
07K07;Johanna-Eck-Schule (Integrierte Sekundarschule);12105;Ringstr. 103-106;Berlin;52.44685;13.3641;;;;;;;;;;;;;
09G06;Melli-Beese-Schule (Grundschule);12487;Engelhardstr. 18;Berlin;52.44698;13.51067;;;;;;;;;;;;;
07G25;Mascha-Kaléko-Grundschule;12105;Königstr. 32;Berlin;52.44719;13.38394;;;;;;;;;;;;;
09S04;Ahorn-Schule;12587;Peter-Hille-Str. 118;Berlin;52.44792;13.61977;;;;;;;;;;;;;
06G31;Grundschule an der Bäke;12203;Haydnstr. 15;Berlin;52.44797;13.31899;;;;;;;;;;;;;
08K11;Alfred-Nobel-Schule;12347;Britzer Damm 164;Berlin;52.44809;13.43477;;;;;;;;;;;;;
09P16;KreativitätsGrundschule Berlin Treptow;12439;Hartriegelstr. 77;Berlin;52.44813;13.53125;;;;;;;;;;;;;
09Y10;Gebrüder-Montgolfier-Gymnasium;12487;Ellernweg 20-22;Berlin;52.44832;13.50363;;;;;;;;;;;;;
08K06;Fritz-Karsen-Schule (Gemeinschaftsschule);12359;Onkel-Bräsig-Str. 76-78;Berlin;52.44847;13.44401;;;;;;;;;;;;;
07G23;Schätzelberg-Grundschule;12109;Wolfsburger Weg 13-19;Berlin;52.44868;13.4005;;;;;;;;;;;;;
06G32;Grundschule am Stadtpark Steglitz;12167;Karl-Stieler-Str. 10-11;Berlin;52.44934;13.34299;;;;;;;;;;;;;
09G24;Müggelsee-Schule (Grundschule);12587;Aßmannstr. 63;Berlin;52.45057;13.62735;;;;;;;;;;;;;
06P12;Evangelische Schule Steglitz (Integrierte Sekundarschule);12167;Beymestr. 6-7;Berlin;52.45058;13.33162;;;;;;;;;;;;;
09K05;Wilhelm-Bölsche-Schule (Integrierte Sekundarschule);12587;Aßmannstr. 11;Berlin;52.45096;13.61926;;;;;;;;;;;;;
09Y03;Archenhold-Gymnasium;12439;Rudower Str. 7;Berlin;52.45138;13.5229;;;;;;;;;;;;;
09P09;BEST-Sabel-Oberschule;12555;Lindenstr. 1;Berlin;52.45166;13.57159;;;;;;;;;;;;;
06G17;Grundschule am Insulaner;12169;Hanstedter Weg 11-15;Berlin;52.45184;13.34977;;;;;;;;;;;;;
06B04;Wilhelm-Ostwald-Schule (OSZ Gestaltung);12169;Immenweg 6;Berlin;52.45206;13.34579;;;;;;;;;;;;;
09Y06;Gerhart-Hauptmann-Gymnasium;12587;Bruno-Wille-Str. 37/39;Berlin;52.45228;13.63274;;;;;;;;;;;;;
09P01;Freie Waldorfschule Berlin-Südost;12439;Bruno-Bürgel-Weg 9;Berlin;52.45249;13.53402;;;;;;;;;;;;;
06K10;Helene-Lange-Schule (Integrierte Sekundarschule);12169;Lauenburger Str. 110/114;Berlin;52.45274;13.33588;;;;;;;;;;;;;
09P13;Evangelische Grundschule Friedrichshagen;12587;Peter-Hille-Str. 36;Berlin;52.45279;13.62067;;;;;;;;;;;;;
06Y08;Hermann-Ehlers-Gymnasium;12169;Elisenstr. 3-4;Berlin;52.45295;13.33371;;;;;;;;;;;;;
05P05;Berufsschule des Rotkreuz-Instituts;14089;Krampnitzer Weg 83-87;Berlin;52.45307;13.11836;;;;;;;;;;;;;
07P17;Humanistische Fachschule für Sozialpädagogik;12109;Ullsteinstr. 130;Berlin;52.45327;13.38667;;;;;;;;;;;;;
07G22;Paul-Klee-Grundschule;12105;Konradinstr. 15-17;Berlin;52.45384;13.37548;;;;;;;;;;;;;
09P10;Bewegte Schule Köpenick (Grundschule);12555;Lindenstr. 26;Berlin;52.45392;13.56794;;;;;;;;;;;;;
06Y09;Fichtenberg-Oberschule;12165;Rothenburgstr. 18;Berlin;52.45398;13.31316;;;;;;;;;;;;;
06G12;Quentin-Blake-Grundschule;14195;Hüttenweg 40;Berlin;52.45434;13.2696;;;;;;;;;;;;;
06S02;Biesalski-Schule;14195;Hüttenweg 40;Berlin;52.45434;13.2696;;;;;;;;;;;;;
08G19;Herman-Nohl-Schule (Grundschule);12347;Hannemannstr. 68;Berlin;52.45445;13.43939;;;;;;;;;;;;;
09G27;Friedrichshagener Schule (Grundschule);12587;Peter-Hille-Str. 7;Berlin;52.45455;13.6214;;;;;;;;;;;;;
06G16;Rothenburg-Grundschule;12165;Rothenburgstr. 16/17;Berlin;52.45456;13.31386;;;;;;;;;;;;;
07P05;Freie Schule in Berlin (Grundschule);12105;Viktoriastr. 13;Berlin;52.45463;13.38225;;;;;;;;;;;;;
06K02;Wilma-Rudolph-Schule (Integrierte Sekundarschule);14169;Am Hegewinkel 2 A;Berlin;52.45472;13.26111;;;;;;;;;;;;;
09G07;Schule an der alten Feuerwache (Grundschule);12439;Schnellerstr. 31;Berlin;52.45496;13.51432;;;;;;;;;;;;;
07P16;Vivantes Berufsfachschule für Altenpflege;12099;Colditzstr. 34;Berlin;52.4554;13.39483;;;;;;;;;;;;;
05G19;Grundschule am Ritterfeld;14089;Schallweg 31;Berlin;52.45542;13.13862;;;;;;;;;;;;;
06G34;34. Schule (Grundschule);12169;Plantagenstr. 8-9;Berlin;52.45549;13.33061;;;;;;;;;;;;;
06S05;J.-A.-Zeune-Schule für Blinde und Berufsfachschule Dr. Silex;12165;Rothenburgstr. 14;Berlin;52.45579;13.31515;;;;;;;;;;;;;
09G23;Hauptmann-von-Köpenick-Schule (Grundschule);12555;Borgmannstr. 2-3;Berlin;52.45609;13.58081;;;;;;;;;;;;;
06P04;Rudolf-Steiner-Schule Berlin;14195;Auf dem Grat 3;Berlin;52.45637;13.27484;;;;;;;;;;;;;
09P19;Technische Jugendfreizeit- und Bildungsgesellschaft (tjfbg) gGmbH;12459;Ostendstr. 1;Berlin;52.45677;13.52971;;;;;;;;;;;;;
06Y13;Gymnasium Steglitz;12169;Heesestr. 15;Berlin;52.45691;13.32661;;;;;;;;;;;;;
08K03;Otto-Hahn-Schule;12359;Buschkrugallee 63;Berlin;52.45777;13.44889;;;;;;;;;;;;;
08B04;OSZ Informations- und Medizintechnik;12359;Haarlemer Str. 23-27;Berlin;52.45789;13.4526;;;;;;;;;;;;;
07G07;Lindenhof-Grundschule;12105;Reglinstr. 29;Berlin;52.45801;13.36322;;;;;;;;;;;;;
06G04;Erich-Kästner-Grundschule;14195;Bachstelzenweg 2-8;Berlin;52.45823;13.28331;;;;;;;;;;;;;
07G20;Maria-Montessori-Grundschule;12103;Friedrich-Wilhelm-Str. 72-74;Berlin;52.45828;13.38085;;;;;;;;;;;;;
06Y03;Arndt-Gymnasium Dahlem;14195;Königin-Luise-Str. 80-84;Berlin;52.45911;13.28027;;;;;;;;;;;;;
06P11;Private Kant-Schule;12169;Körnerstr. 11;Berlin;52.45913;13.32981;;;;;;;;;;;;;
06P10;Private Kant-Schule (Grundschule);12165;Grunewaldstr. 44;Berlin;52.4592;13.31365;;;;;;;;;;;;;
08G24;Schule am Teltowkanal (Grundschule);12347;Rungiusstr. 46;Berlin;52.45926;13.44062;;;;;;;;;;;;;
06K09;Gail-S.-Halvorsen-Integrierte Sekundarschule;14195;Im Gehege 6;Berlin;52.45952;13.28446;;;;;;;;;;;;;
09G31;31. Schule (Grundschule);12459;Keplerstr. 10;Berlin;52.45961;13.53228;;;;;;;;;;;;;
05P01;Freie Waldorfschule Havelhöhe - Eugen Kolisko;14089;Neukladower Allee 1;Berlin;52.45979;13.15611;;;;;;;;;;;;;
07Y06;Askanisches Gymnasium;12103;Kaiserin-Augusta-Str. 19/20;Berlin;52.4599;13.37984;;;;;;;;;;;;;
06P06;Königin-Luise-Stiftung;14195;Podbielskiallee 78;Berlin;52.46034;13.30221;;;;;;;;;;;;;
07G19;Paul-Simmel-Grundschule;12099;Felixstr. 26-58;Berlin;52.46136;13.39391;;;;;;;;;;;;;
06Y07;Paulsen-Gymnasium;12163;Gritznerstr. 57;Berlin;52.46161;13.31427;;;;;;;;;;;;;
06G14;Sachsenwald-Grundschule;12157;Sachsenwaldstr. 20-21;Berlin;52.46182;13.33633;;;;;;;;;;;;;
09G04;Sonnenblumen-Schule (Grundschule);12437;Radenzer Str. 16;Berlin;52.46196;13.48854;;;;;;;;;;;;;
09P20;Elisabeth-Schulen;12459;Edisonstr. 63;Berlin;52.46217;13.51373;;;;;;;;;;;;;
08G23;Zürich-Schule (Grundschule);12347;Wederstr. 49;Berlin;52.46233;13.43835;;;;;;;;;;;;;
09G22;Schule an der Wuhlheide (Grundschule);12459;Kottmeierstr. 2;Berlin;52.46268;13.52399;;;;;;;;;;;;;
06K03;Kopernikus-Schule (Integrierte Sekundarschule);12163;Lepsiusstr. 24-28;Berlin;52.46391;13.3201;;;;;;;;;;;;;
09P18;Freie Interkulturelle Waldorfschule Berlin;12439;Schnellerstr. 1-5;Berlin;52.46395;13.49838;;;;;;;;;;;;;
08G15;Hermann-Sander-Schule (Grundschule);12051;Mariendorfer Weg 69;Berlin;52.46415;13.43021;;;;;;;;;;;;;
07S04;Marianne-Cohn-Schule;12099;Holzmannstr. 7;Berlin;52.46424;13.41824;;;;;;;;;;;;;
09K01;Merian-Schule (Integrierte Sekundarschule);12555;Hoernlestr. 80;Berlin;52.46434;13.57692;;;;;;;;;;;;;
07K13;Schule am Berlinickeplatz (Integrierte Sekundarschule);12103;Alt-Tempelhof 53-57;Berlin;52.46488;13.37891;;;;;;;;;;;;;
06G15;Dunant-Grundschule;12163;Gritznerstr. 19-23;Berlin;52.46518;13.31767;;;;;;;;;;;;;
08P09;MeineSchuleBerlin (Gemeinschaftsschule);12051;Delbrückstr. 18;Berlin;52.46524;13.43667;;;;;;;;;;;;;
09K04;Isaac-Newton-Schule (Integrierte Sekundarschule);12459;Zeppelinstr. 80/88;Berlin;52.46575;13.51848;;;;;;;;;;;;;
09A06;VHS Treptow-Köpenick;12459;Zeppelinstr. 76-80;Berlin;52.46601;13.51746;;;;;;;;;;;;;
08P08;Cenfila gGmbH;12057;Karl-Marx-Str. 255;Berlin;52.46624;13.44262;;;;;;;;;;;;;
09G21;Edison-Grundschule;12459;Wattstr. 69-70;Berlin;52.46629;13.50885;;;;;;;;;;;;;
09B03;Hermann-Scheer-Schule (OSZ Wirtschaft);12459;Helmholtzstr. 37;Berlin;52.46632;13.50697;;;;;;;;;;;;;
08G35;Schule in der Köllnischen Heide (Grundschule);12057;Hänselstr. 6;Berlin;52.46682;13.47275;;;;;;;;;;;;;
08G21;Silberstein-Schule (Grundschule);12051;Silbersteinstr. 42;Berlin;52.46691;13.43497;;;;;;;;;;;;;
08K12;Kepler-Schule;12057;Zwillingestr. 21-29;Berlin;52.46737;13.46431;;;;;;;;;;;;;
07G15;Fläming-Grundschule;12161;Illstr. 4-6;Berlin;52.46758;13.33355;;;;;;;;;;;;;
09G17;Uhlenhorst-Grundschule;12555;Wongrowitzer Steig 37;Berlin;52.46764;13.57979;;;;;;;;;;;;;
09A05;Treptow-Kolleg;12437;Kiefholzstr. 274;Berlin;52.46803;13.48394;;;;;;;;;;;;;
09G03;Schule am Heidekampgraben (Grundschule);12437;Hänselstr. 14;Berlin;52.46848;13.47796;;;;;;;;;;;;;
08P13;b-trend-setting gUG (haftungsbeschränkt) media & more;12055;Lahnstr. 19;Berlin;52.46852;13.4533;;;;;;;;;;;;;
07S01;Prignitz-Schule;12157;Pöppelmannstr. 2;Berlin;52.46876;13.34526;;;;;;;;;;;;;
07Y04;Paul-Natorp-Gymnasium;12161;Goßlerstr. 13-15;Berlin;52.46928;13.32427;;;;;;;;;;;;;
08Y01;Albrecht-Dürer-Gymnasium;12051;Emser Str. 133-137;Berlin;52.46947;13.4403;;;;;;;;;;;;;
07G17;Stechlinsee-Grundschule;12161;Rheingaustr. 7;Berlin;52.46954;13.32241;;;;;;;;;;;;;
07K12;Friedenauer Gemeinschaftsschule;12157;Rubensstr. 63;Berlin;52.4697;13.34409;;;;;;;;;;;;;
04P42;Private Kant-Schule - Berlin International School;14195;Lentzeallee 8/14;Berlin;52.47022;13.29277;;;;;;;;;;;;;
07Y03;Rheingau-Gymnasium;12161;Schwalbacher Str. 3-4;Berlin;52.47028;13.32237;;;;;;;;;;;;;
04G19;Grundschule am Rüdesheimer Platz;14197;Rüdesheimer Str. 24-30;Berlin;52.47117;13.31334;;;;;;;;;;;;;
09S03;Albatros-Schule;12459;Treskowallee 222;Berlin;52.47148;13.51555;;;;;;;;;;;;;
07P10;Campus Berufsbildung e.V.;10829;Geneststr. 5;Berlin;52.47165;13.36597;;;;;;;;;;;;;
08G12;Peter-Petersen-Schule (Grundschule);12053;Jonasstr. 15;Berlin;52.47175;13.43578;;;;;;;;;;;;;
08G20;Sonnen-Schule (Grundschule);12057;Dammweg 228;Berlin;52.47183;13.46697;;;;;;;;;;;;;
05G29;Mary-Poppins-Grundschule;14089;Am Flugplatz Gatow 20;Berlin;52.47221;13.12753;;;;;;;;;;;;;
08G36;Löwenzahn-Schule (Grundschule);12055;Drorystr. 3;Berlin;52.47242;13.44868;;;;;;;;;;;;;
05Y03;Hans-Carossa-Gymnasium;14089;Am Landschaftspark Gatow 40;Berlin;52.47252;13.13021;;;;;;;;;;;;;
08G14;Konrad-Agahd-Schule (Grundschule);12053;Thomasstr. 39;Berlin;52.4726;13.4355;;;;;;;;;;;;;
09S06;Schule am Wildgarten;12437;Köpenicker Landstr. 185 A;Berlin;52.47278;13.48779;;;;;;;;;;;;;
08G17;Richard-Schule (Grundschule);12055;Richardplatz 14;Berlin;52.47299;13.44448;;;;;;;;;;;;;
07P21;BBA-Akademie für Immobilienwirtschaft e.V.;12159;Hauptstraße 78/79;Berlin;52.47319;13.3369;;;;;;;;;;;;;
07G16;Ruppin-Grundschule;14197;Offenbacher Str. 5A;Berlin;52.47524;13.32113;;;;;;;;;;;;;
08G09;Regenbogen-Schule (Grundschule);12053;Morusstr. 32;Berlin;52.47572;13.43339;;;;;;;;;;;;;
07P12;SPI Fachschule für Sozialpädagogik;10829;Priesterweg 4;Berlin;52.47573;13.35627;;;;;;;;;;;;;
08K10;Zuckmayer-Schule;12053;Kopfstr. 55;Berlin;52.47594;13.43143;;;;;;;;;;;;;
08S01;Adolf-Reichwein-Schule;12059;Sonnenallee 188;Berlin;52.47594;13.45109;;;;;;;;;;;;;
07K10;Friedrich-Bergius-Schule;12159;Perelsplatz 6-9;Berlin;52.47609;13.33334;;;;;;;;;;;;;
04G27;Judith-Kerr-Grundschule;14199;Friedrichshaller Str. 13;Berlin;52.47612;13.29324;;;;;;;;;;;;;
08G06;Karl-Weise-Schule (Grundschule);12049;Weisestr. 20;Berlin;52.47645;13.42405;;;;;;;;;;;;;
04G23;Alt-Schmargendorf-Grundschule;14199;Reichenhaller Str. 8;Berlin;52.47697;13.29361;;;;;;;;;;;;;
08G18;Eduard-Mörike-Schule (Grundschule);12059;Stuttgarter Str. 35-39;Berlin;52.47774;13.4505;;;;;;;;;;;;;
08P04;Katholische Schule Sankt Marien;12043;Donaustr. 58;Berlin;52.47785;13.44292;;;;;;;;;;;;;
07G24;Tempelherren-Grundschule;12101;Boelckestr. 58-60;Berlin;52.47821;13.37591;;;;;;;;;;;;;
07K11;Hugo-Gaudig-Schule;12101;Boelckestr. 58-60;Berlin;52.47821;13.37591;;;;;;;;;;;;;
07A06;VHS Tempelhof-Schöneberg;10829;Ella-Barowsky-Str 62;Berlin;52.47832;13.35741;;;;;;;;;;;;;
04G24;Carl-Orff-Grundschule;14199;Berkaer Str. 9-10;Berlin;52.47841;13.28706;;;;;;;;;;;;;
11G14;Richard-Wagner-Schule (Grundschule);10318;Ehrenfelsstr. 36;Berlin;52.4791;13.53407;;;;;;;;;;;;;
08A10;VHS Neukölln - Otto-Suhr / Tannenhofschule;12049;Mahlower Str. 23/24;Berlin;52.4796;13.42216;;;;;;;;;;;;;
08P01;Johann-Georg-Elser-Schule (Grundschule);12049;Mahlower Str. 23-24;Berlin;52.4796;13.42216;;;;;;;;;;;;;
07G06;Sternberg-Grundschule;10825;Mettestr. 8;Berlin;52.47978;13.33805;;;;;;;;;;;;;
07Y02;Rückert-Gymnasium;10825;Mettestr. 8;Berlin;52.47978;13.33805;;;;;;;;;;;;;
04Y10;Marie-Curie-Gymnasium;10715;Weimarische Str. 21;Berlin;52.48043;13.32458;;;;;;;;;;;;;
08G07;Hermann-Boddin-Schule (Grundschule);12053;Boddinstr. 55;Berlin;52.48044;13.43123;;;;;;;;;;;;;
04G26;Birger-Forell-Grundschule;10715;Koblenzer Str. 22-24;Berlin;52.48051;13.32196;;;;;;;;;;;;;
07G21;Grundschule auf dem Tempelhofer Feld;12101;Schulenburgring 7-11;Berlin;52.4809;13.38203;;;;;;;;;;;;;
09K07;Sophie-Brahe-Gemeinschaftsschule;12435;Am Plänterwald 17/23;Berlin;52.48184;13.47855;;;;;;;;;;;;;
08G08;Karlsgarten-Schule (Grundschule);12049;Karlsgartenstr. 7;Berlin;52.48202;13.42097;;;;;;;;;;;;;
04B08;Kläre-Bloch-Schule;10715;Prinzregentenstr. 60;Berlin;52.48238;13.33351;;;;;;;;;;;;;
04K10;Wangari-Maathai-Internationale-Schule;10715;Babelsberger Str. 24;Berlin;52.4824;13.33503;;;;;;;;;;;;;
10P05;BEST-Sabel-Grundschule Mahlsdorf;12623;Erich-Baron-Weg 118;Berlin;52.48246;13.60557;;;;;;;;;;;;;
11P04;KreativitätsGrundschule Berlin Lichtenberg;10318;Ehrlichstr. 63;Berlin;52.48275;13.51437;;;;;;;;;;;;;
04K07;Integrierte Sekundarschule Wilmersdorf;14199;Kranzer Str. 3;Berlin;52.48286;13.29383;;;;;;;;;;;;;
08P03;Evangelische Schule Neukölln (Integrierte Sekundarschule);12053;Mainzer Str. 47;Berlin;52.48313;13.42807;;;;;;;;;;;;;
04G18;Ernst-Habermann-Grundschule;10715;Prinzregentenstr. 33-34;Berlin;52.48322;13.33292;;;;;;;;;;;;;
08Y04;Ernst-Abbe-Gymnasium;12045;Sonnenallee 79;Berlin;52.48345;13.43703;;;;;;;;;;;;;
08G03;Hans-Fallada-Schule (Grundschule);12059;Harzer Str. 73;Berlin;52.48361;13.45214;;;;;;;;;;;;;
08S06;Hans-Fallada-Schule;12059;Harzer Str. 73-74;Berlin;52.48361;13.45214;;;;;;;;;;;;;
04B06;Leopold-Ullstein-Schule (OSZ Wirtschaft);10715;Prinzregentenstr. 32;Berlin;52.48365;13.33294;;;;;;;;;;;;;
11G37;37. Schule (Grundschule);10318;Blockdammweg 60;Berlin;52.48394;13.51086;;;;;;;;;;;;;
04A06;Peter-A.-Silbermann-Schule;10713;Blissestr. 22;Berlin;52.48423;13.3195;;;;;;;;;;;;;
04Y07;Friedrich-Ebert-Gymnasium;10713;Blissestr. 22;Berlin;52.48423;13.3195;;;;;;;;;;;;;
08G05;Elbe-Schule (Grundschule);12045;Elbestr. 11;Berlin;52.48428;13.4404;;;;;;;;;;;;;
07G10;Teltow-Grundschule;10827;Feurigstr. 57;Berlin;52.48434;13.35614;;;;;;;;;;;;;
04S06;Finkenkrug-Schule;10713;Mannheimer Str. 21-22;Berlin;52.48441;13.31611;;;;;;;;;;;;;
04G22;Grunewald-Grundschule;14193;Delbrückstr. 20 A;Berlin;52.48454;13.2812;;;;;;;;;;;;;
07B03;OSZ Lotis (Logistik, Touristik und Steuern);10965;Dudenstr. 35-37;Berlin;52.48468;13.38065;;;;;;;;;;;;;
07G05;Havelland-Grundschule;10829;Kolonnenstr. 30 - 30a;Berlin;52.48473;13.36841;;;;;;;;;;;;;
08Y02;Albert-Schweitzer-Gymnasium;12043;Karl-Marx-Str. 14;Berlin;52.48473;13.42637;;;;;;;;;;;;;
08G01;Rixdorfer Schule (Grundschule);12043;Donaustr. 120;Berlin;52.48485;13.43177;;;;;;;;;;;;;
07Y01;Robert-Blum-Gymnasium;10829;Kolonnenstr. 21;Berlin;52.48494;13.36472;;;;;;;;;;;;;
04Y08;Hildegard-Wegscheider-Gymnasium;14193;Lassenstr. 16-20;Berlin;52.48494;13.27666;;;;;;;;;;;;;
08P10;Akademie Seehof GmbH - Private Berufsfachschule für Altenpflege;12045;Elbestr. 28-29;Berlin;52.48503;13.44012;;;;;;;;;;;;;
05G24;Grundschule am Windmühlenberg;14089;Am Kinderdorf 23-37;Berlin;52.48534;13.17437;;;;;;;;;;;;;
04P11;Evangelisches Gymnasium zum Grauen Kloster;14193;Salzbrunner Str. 41;Berlin;52.48537;13.29312;;;;;;;;;;;;;
07P11;Privates Europa-Gymnasium Berlin;10827;Hauptstr. 27;Berlin;52.48556;13.35463;;;;;;;;;;;;;
07P19;Freie Schule Schöneberg (Grundschule);10827;Hauptstr. 27;Berlin;52.48556;13.35463;;;;;;;;;;;;;
07K09;Gustav-Langenscheidt-Schule;10823;Belziger Str. 43-51;Berlin;52.48581;13.35037;;;;;;;;;;;;;
10G33;Ulmen-Grundschule;12621;Ulmenstr. 79-85;Berlin;52.48581;13.58037;;;;;;;;;;;;;
09G30;Kiefholz-Grundschule;12435;Kiefholzstr. 45;Berlin;52.4863;13.45605;;;;;;;;;;;;;
02P29;Kenntnisreich gGmbH;10965;Schmiedehof 23;Berlin;52.48686;13.3823;;;;;;;;;;;;;
08G02;Theodor-Storm-Schule (Grundschule);12043;Hobrechtstr. 76;Berlin;52.48688;13.42673;;;;;;;;;;;;;
04Y11;Goethe-Gymnasium;10717;Gasteiner Str. 23;Berlin;52.48729;13.32167;;;;;;;;;;;;;
08K08;Gemeinschaftsschule auf dem Campus Rütli;12045;Rütlistr. 41;Berlin;52.48759;13.4343;;;;;;;;;;;;;
07P20;Rudolf Steiner Bildungszentrum gGmbH;10829;Monumentenstr. 13 B;Berlin;52.48767;13.36636;;;;;;;;;;;;;
07P18;Johannes-Schule Berlin;10829;Monumentenstr.13 A;Berlin;52.48788;13.36768;;;;;;;;;;;;;
04S07;Comenius-Schule;10713;Gieselerstr. 4;Berlin;52.48857;13.31834;;;;;;;;;;;;;
08K09;Röntgen-Schule;12435;Wildenbruchstr. 53;Berlin;52.4889;13.44978;;;;;;;;;;;;;
02K10;Ferdinand-Freiligrath-Schule (Integrierte Sekundarschule);10961;Bergmannstr. 64;Berlin;52.48898;13.40145;;;;;;;;;;;;;
04P41;Freudberg Gemeinschaftsschule;10717;Bundesallee 35;Berlin;52.4891;13.32999;;;;;;;;;;;;;
11P02;bbw Akademie für Betriebswirtschaftliche Weiterbildung GmbH;10318;Rheinpfalzallee 82;Berlin;52.48912;13.53782;;;;;;;;;;;;;
11G13;Karlshorster Schule (Grundschule);10318;Lisztstr. 6;Berlin;52.48921;13.52006;;;;;;;;;;;;;
04P12;Annie-Heuser-Schule;10709;Eisenzahnstr. 37;Berlin;52.48932;13.30475;;;;;;;;;;;;;
07G14;Löcknitz-Grundschule;10779;Berchtesgadener Str. 10-11;Berlin;52.48946;13.34351;;;;;;;;;;;;;
02Y06;Leibniz-Gymnasium;10961;Schleiermacherstr. 23;Berlin;52.48997;13.39686;;;;;;;;;;;;;
10K06;Georg-Klingenberg-Schule;12683;Alberichstr. 24;Berlin;52.49057;13.558;;;;;;;;;;;;;
02G13;Charlotte-Salomon-Grundschule;10965;Großbeerenstr. 40;Berlin;52.49059;13.38189;;;;;;;;;;;;;
02P03;Islamische Grundschule;10967;Boppstr. 4;Berlin;52.49088;13.42139;;;;;;;;;;;;;
07P02;Pestalozzi-Fröbel-Haus;10781;Karl-Schrader-Str. 7-8;Berlin;52.49094;13.35142;;;;;;;;;;;;;
04K04;Nelson-Mandela-Schule;10719;Pfalzburger Str. 30;Berlin;52.49095;13.32108;;;;;;;;;;;;;
02G21;Reinhardswald-Grundschule;10961;Gneisenaustr. 73-74;Berlin;52.49097;13.39967;;;;;;;;;;;;;
02G31;Adolf-Glaßbrenner-Grundschule;10965;Hagelberger Str. 34;Berlin;52.49106;13.38058;;;;;;;;;;;;;
02K02;Carl-von-Ossietzky-Schule (Gemeinschaftsschule);10961;Blücherstr. 46 -47;Berlin;52.49113;13.40574;;;;;;;;;;;;;
04Y09;Walther-Rathenau-Gymnasium;14193;Herbertstr. 2-6;Berlin;52.49134;13.28123;;;;;;;;;;;;;
02K04;Lina-Morgenstern-Schule (Gemeinschaftsschule);10961;Gneisenaustr. 7;Berlin;52.49146;13.38966;;;;;;;;;;;;;
11G12;Lew-Tolstoi-Schule (Grundschule);10318;Römerweg 120;Berlin;52.49185;13.5368;;;;;;;;;;;;;
11Y05;Hans-und-Hilde-Coppi-Gymnasium;10318;Römerweg 30-32;Berlin;52.49189;13.52325;;;;;;;;;;;;;
02P32;sfe Schule für Erwachsenenbildung e.V.;10961;Gneisenaustr. 2A;Berlin;52.49203;13.38856;;;;;;;;;;;;;
07G18;Grundschule am Barbarossaplatz;10781;Barbarossaplatz 5;Berlin;52.49232;13.34974;;;;;;;;;;;;;
04K09;Otto-von-Guericke-Schule (Integrierte Sekundarschule);10709;Eisenzahnstr. 47-48;Berlin;52.49241;13.30525;;;;;;;;;;;;;
02G11;Thalia-Grundschule;10245;Alt-Stralau 34;Berlin;52.49287;13.47595;;;;;;;;;;;;;
07G13;Neumark-Grundschule;10783;Steinmetzstr. 46-50;Berlin;52.49302;13.36391;;;;;;;;;;;;;
04G25;Cecilien-Schule (Grundschule);10717;Nikolsburger Platz 5;Berlin;52.49323;13.32797;;;;;;;;;;;;;
02G33;Aziz-Nesin-Grundschule;10961;Urbanstr. 15;Berlin;52.4933;13.40578;;;;;;;;;;;;;
09G01;Bouché-Schule (Grundschule);12435;Bouchestr. 5;Berlin;52.49334;13.45274;;;;;;;;;;;;;
02Y08;Hermann-Hesse-Gymnasium;10967;Böckhstr. 16;Berlin;52.49347;13.41923;;;;;;;;;;;;;
04G20;Katharina-Heinroth-Grundschule;10709;Münstersche Str. 15-17;Berlin;52.49393;13.3064;;;;;;;;;;;;;
09P21;NEWSchool (Integrierte Sekundarschule);12435;Lohmühlenstr. 65;Berlin;52.49396;13.44611;;;;;;;;;;;;;
10G32;Kiekemal-Schule (Grundschule);12623;Hultschiner Damm 219;Berlin;52.49396;13.60928;;;;;;;;;;;;;
02Y07;Robert-Koch-Gymnasium;10967;Böckhstrasse 10;Berlin;52.49399;13.41726;;;;;;;;;;;;;
07K01;Sophie-Scholl-Schule;10781;Elßholzstr. 34-37;Berlin;52.49401;13.35685;;;;;;;;;;;;;
04K03;Robert-Jungk-Schule;10707;Sächsische Str. 58;Berlin;52.49411;13.31784;;;;;;;;;;;;;
07G12;Scharmützelsee-Grundschule;10779;Hohenstaufenstr. 49;Berlin;52.49417;13.34326;;;;;;;;;;;;;
07K06;Georg-von-Giesche-Schule;10779;Hohenstaufenstr. 47-48;Berlin;52.49417;13.34261;;;;;;;;;;;;;
02G26;Lemgo-Grundschule;10967;Böckhstr. 5;Berlin;52.4942;13.41645;;;;;;;;;;;;;
04P21;Evangelische Schule Wilmersdorf (Grundschule);10707;Brandenburgische Str. 51;Berlin;52.49423;13.30896;;;;;;;;;;;;;
02K09;Albrecht-von-Graefe-Schule (Integrierte Sekundarschule);10967;Graefestr. 85;Berlin;52.49434;13.41903;;;;;;;;;;;;;
11G31;Schmetterlings-Grundschule;10319;Dolgenseestr. 60; Gebäude B;52.49457;13.50637;;;;;;;;;;;;;
02G35;Rosa-Parks-Grundschule;10999;Reichenberger Str. 65;Berlin;52.49472;13.4315;;;;;;;;;;;;;
07G03;Werbellinsee-Grundschule;10781;Luitpoldstr. 38;Berlin;52.49496;13.34822;;;;;;;;;;;;;
02G20;Bürgermeister-Herz-Grundschule;10961;Wilmsstr. 10;Berlin;52.49496;13.40519;;;;;;;;;;;;;
07P01;Katholische Schule Sankt Franziskus (Integrierte Sekundarschule);10781;Hohenstaufenstr. 1-2;Berlin;52.49507;13.35347;;;;;;;;;;;;;
04G17;Johann-Peter-Hebel-Grundschule;10719;Emser Str. 50;Berlin;52.49518;13.31954;;;;;;;;;;;;;
07G01;Spreewald-Grundschule;10781;Pallasstr. 15;Berlin;52.49555;13.35661;;;;;;;;;;;;;
02G23;Fichtelgebirge-Grundschule;10997;Görlitzer Ufer 2;Berlin;52.49568;13.44508;;;;;;;;;;;;;
11G11;Bernhard-Grzimek-Schule (Grundschule);10319;Sewanstr. 184;Berlin;52.49569;13.51207;;;;;;;;;;;;;
04P10;Katholische Schule Sankt Ludwig (Grundschule);10719;Düsseldorfer Str. 13;Berlin;52.49593;13.32131;;;;;;;;;;;;;
07P03;Lette-Verein Stiftung des öffentlichen Rechts;10777;Viktoria-Luise-Platz 6;Berlin;52.49608;13.34121;;;;;;;;;;;;;
11K08;George-Orwell-Schule;10319;Sewanstr. 223;Berlin;52.49669;13.51504;;;;;;;;;;;;;
02P16;BWK Berufsfachschule für Altenpflege;10997;Cuvrystr. 34;Berlin;52.49672;13.44324;;;;;;;;;;;;;
09P05;Grone - Bildungszentren Berlin GmbH - gemeinnützig;12435;Eichenstr. 3 B;Berlin;52.49675;13.45517;;;;;;;;;;;;;
04S04;Reinfelder-Schule;14055;Maikäferpfad 30;Berlin;52.49678;13.26355;;;;;;;;;;;;;
02S02;Gustav-Meyer-Schule;10999;Kohlfurter Str. 22;Berlin;52.49698;13.41656;;;;;;;;;;;;;
02G22;Jens-Nydahl-Grundschule;10999;Kohlfurter Str. 20;Berlin;52.49709;13.41599;;;;;;;;;;;;;
02G27;Hunsrück-Grundschule;10999;Manteuffelstr. 79;Berlin;52.49786;13.42658;;;;;;;;;;;;;
07G02;Finow-Grundschule;10777;Welserstr. 16-22;Berlin;52.4983;13.34302;;;;;;;;;;;;;
02K03;Hector-Peterson-Schule;10963;Tempelhofer Ufer 15;Berlin;52.49847;13.38427;;;;;;;;;;;;;
04S05;Ernst-Adolf-Eschke-Schule für Gehörlose;14055;Waldschulallee 29;Berlin;52.49854;13.26559;;;;;;;;;;;;;
11G35;35. Schule (Grundschule);10319;Sewanstr. 41;Berlin;52.49863;13.50153;;;;;;;;;;;;;
07B02;Marie-Elisabeth-Lüders-Oberschule;10783;Steinmetzstr. 79;Berlin;52.49898;13.36467;;;;;;;;;;;;;
02B02;Hans-Böckler-Schule (OSZ Konstruktionsbautechnik);10969;Lobeckstr. 76;Berlin;52.49912;13.4032;;;;;;;;;;;;;
11K12;Paul-und-Charlotte-Kniese-Schule (Gemeinschaftsschule);10319;Erich-Kurz-Str. 6-10;Berlin;52.49921;13.51926;;;;;;;;;;;;;
11S04;Paul-und-Charlotte-Kniese-Schule;10319;Erich-Kurz-Str. 6-10;Berlin;52.49921;13.51926;;;;;;;;;;;;;
02K08;Refik-Veseli-Schule (Integrierte Sekundarschule);10997;Skalitzer Str. 55;Berlin;52.49967;13.43575;;;;;;;;;;;;;
10G16;Fuchsberg-Grundschule;12683;Apfelwicklerstr. 4/6;Berlin;52.49982;13.56587;;;;;;;;;;;;;
02G24;Otto-Wels-Grundschule;10969;Alexandrinenstr. 12;Berlin;52.49997;13.40152;;;;;;;;;;;;;
04G21;Halensee-Grundschule;10711;Joachim-Friedrich-Str. 35-36;Berlin;52.5002;13.29627;;;;;;;;;;;;;
04P40;Berlin British School (Integrierte Sekundarschule);14055;Am Postfenn 31;Berlin;52.50041;13.21094;;;;;;;;;;;;;
04P45;Jewish International School - Masorti-Grundschule;10629;Roscherstraße 6;Berlin;52.50057;13.30168;;;;;;;;;;;;;
02P22;Pro Inklusio - Fachschule für Sozialpädagogik;10997;Muskauer Str. 53;Berlin;52.50072;13.43295;;;;;;;;;;;;;
02G29;Heinrich-Zille-Grundschule;10997;Waldemarstr. 118;Berlin;52.50077;13.42919;;;;;;;;;;;;;
02B04;OSZ Handel 1;10997;Wrangelstr. 98;Berlin;52.50097;13.4366;;;;;;;;;;;;;
07P07;BFT Berufsschule für Tourismus;10787;Kleiststr. 23-26;Berlin;52.50121;13.3446;;;;;;;;;;;;;
10P12;Freigeist Schule Berlin;12623;Elsenstr. 13 A;Berlin;52.50124;13.60855;;;;;;;;;;;;;
11G16;Schule an der Victoriastadt (Grundschule);10317;Nöldnerstr. 44;Berlin;52.50155;13.48041;;;;;;;;;;;;;
04P03;Heinz-Galinski-Schule (Grundschule);14055;Waldschulallee 73-75;Berlin;52.50167;13.25899;;;;;;;;;;;;;
02G14;Galilei-Grundschule;10969;Friedrichstr. 13;Berlin;52.5018;13.39149;;;;;;;;;;;;;
02S06;Liebmann-Schule;10969;Friedrichstr. 13;Berlin;52.5018;13.39149;;;;;;;;;;;;;
04K05;Paula-Fürst-Schule (Gemeinschaftsschule);10629;Sybelstr. 20-21;Berlin;52.5021;13.30207;;;;;;;;;;;;;
04Y03;Sophie-Charlotte-Gymnasium;10629;Sybelstr. 2;Berlin;52.5022;13.31247;;;;;;;;;;;;;
01P47;Ecole Voltaire (Grundschule);10785;Kurfürstenstr. 53;Berlin;52.50222;13.35717;;;;;;;;;;;;;
02B01;August-Sander-Schule;10245;Naglerstr. 1-3;Berlin;52.50224;13.44961;;;;;;;;;;;;;
04G06;Wald-Grundschule;14055;Waldschulallee 83-93;Berlin;52.50253;13.25859;;;;;;;;;;;;;
02K06;Emanuel-Lasker-Schule (Gemeinschaftsschule);10245;Modersohnstr. 53;Berlin;52.50274;13.45734;;;;;;;;;;;;;
11B04;Friedrich-List-Schule (OSZ Büromanagement und Wirtschaftssprachen);10317;Marktstr. 2-3;Berlin;52.50295;13.47486;;;;;;;;;;;;;
02P07;Campus Berufsbildung e.V.;10969;Friedrichstr. 231;Berlin;52.50298;13.39091;;;;;;;;;;;;;
11G23;Friedrichsfelder Schule (Grundschule);10315;Lincolnstr. 67;Berlin;52.50316;13.50355;;;;;;;;;;;;;
01G44;Allegro-Grundschule;10785;Lützowstr. 83-85;Berlin;52.50316;13.36298;;;;;;;;;;;;;
01Y07;Französisches Gymnasium;10785;Derfflingerstr. 7;Berlin;52.50327;13.35551;;;;;;;;;;;;;
07A05;Kolleg Schöneberg;10787;Nürnberger Str. 63;Berlin;52.5034;13.34112;;;;;;;;;;;;;
04Y02;Wald-Gymnasium;14055;Waldschulallee 95;Berlin;52.5034;13.2556;;;;;;;;;;;;;
02G19;Fanny-Hensel-Grundschule;10963;Schöneberger Str. 24;Berlin;52.50345;13.38049;;;;;;;;;;;;;
02P04;Freie Waldorfschule Kreuzberg;10969;Ritterstr. 78;Berlin;52.50349;13.40177;;;;;;;;;;;;;
04G04;Joan-Miró-Grundschule;10623;Bleibtreustr. 43;Berlin;52.50357;13.31998;;;;;;;;;;;;;
02P09;Freie Schule Kreuzberg (Grundschule);10997;Wrangelstr. 128;Berlin;52.50402;13.42907;;;;;;;;;;;;;
02P31;procon College gGmbH;10963;Stresemannstr. 78;Berlin;52.50405;13.3832;;;;;;;;;;;;;
02P10;Vitanas Akademie gGmbH;10243;Warschauer Str. 39-40;Berlin;52.50471;13.44806;;;;;;;;;;;;;
11P03;Evangelische Schule Lichtenberg (Grundschule);10315;Rummelsburger Str. 3;Berlin;52.50485;13.51307;;;;;;;;;;;;;
02G12;Kurt-Schumacher-Grundschule;10969;Puttkamerstr. 19;Berlin;52.50505;13.38859;;;;;;;;;;;;;
02G18;Nürtingen-Grundschule;10997;Mariannenplatz 28;Berlin;52.50523;13.42739;;;;;;;;;;;;;
04K08;Peter-Ustinov-Schule;14057;Kuno-Fischer-Str. 22-26;Berlin;52.50525;13.29055;;;;;;;;;;;;;
04P20;Rackow-Schulen Berlin;10623;Fasanenstr. 81;Berlin;52.50526;13.32831;;;;;;;;;;;;;
02P19;FORUM Berufsbildung e.V.;10969;Charlottenstr. 2;Berlin;52.50565;13.39302;;;;;;;;;;;;;
02B03;Modeschule Berlin (OSZ Bekleidung und Mode);10969;Kochstr. 9;Berlin;52.50596;13.38871;;;;;;;;;;;;;
04P15;Freie Schule Charlottenburg;14052;Frankenallee 6;Berlin;52.50663;13.2684;;;;;;;;;;;;;
01G10;City-Grundschule;10179;Sebastianstr. 57;Berlin;52.50753;13.40854;;;;;;;;;;;;;
11K01;Alexander-Puschkin-Schule;10315;Massower Str. 37;Berlin;52.50793;13.51561;;;;;;;;;;;;;
02P26;VIA Bildungszentrum für Pflegeberufe;10969;Axel-Springer-Str. 42;Berlin;52.50797;13.39923;;;;;;;;;;;;;
10G31;Franz-Carl-Achard-Grundschule;12621;Adolfstr. 25;Berlin;52.50797;13.58512;;;;;;;;;;;;;
04G15;Charles-Dickens-Grundschule;14055;Dickensweg 15;Berlin;52.50803;13.2384;;;;;;;;;;;;;
04A04;Charlotte-Wolff-Kolleg;10627;Pestalozzistr. 40-41;Berlin;52.50806;13.30345;;;;;;;;;;;;;
11G09;Bürgermeister-Ziethen-Schule (Grundschule);10315;Massower Str. 39;Berlin;52.50818;13.5167;;;;;;;;;;;;;
05G12;Grundschule am Weinmeisterhorn;13593;Daberkowstr. 27;Berlin;52.50835;13.17431;;;;;;;;;;;;;
02P23;Concept Berufliche Schulen gGmbH Berlin;10245;Revaler Str. 100;Berlin;52.50841;13.45006;;;;;;;;;;;;;
10K13;13. Schule (Integrierte Sekundarschule);12623;An der Schule 41-59;Berlin;52.50858;13.61554;;;;;;;;;;;;;
04P39;Berlin British School (Grundschule);14055;Dickensweg 17-19;Berlin;52.50876;13.23675;;;;;;;;;;;;;
04K02;Friedensburg-Schule;10623;Goethestr. 8-9;Berlin;52.50899;13.32131;;;;;;;;;;;;;
04G01;Eichendorff-Grundschule;10625;Goethestr. 19;Berlin;52.5091;13.31283;;;;;;;;;;;;;
02G09;Zille-Grundschule;10245;Boxhagener Str. 46;Berlin;52.50912;13.46509;;;;;;;;;;;;;
01P06;Canisius-Kolleg;10785;Tiergartenstr. 30-31;Berlin;52.50933;13.35476;;;;;;;;;;;;;
04G02;Lietzensee-Grundschule;14057;Witzlebenstr. 34-35;Berlin;52.50937;13.29475;;;;;;;;;;;;;
04P37;Campus Berufsbildung e.V.;10627;Wilmersdorfer Str. 126-127;Berlin;52.50963;13.30602;;;;;;;;;;;;;
04P24;Moser-Schule - Schweizer Gymnasium;14052;Badenallee 31-32;Berlin;52.50964;13.26319;;;;;;;;;;;;;
11G08;Robinson-Schule (Grundschule);10317;Wönnichstr. 7;Berlin;52.50979;13.50077;;;;;;;;;;;;;
11G07;Hermann-Gmeiner-Schule (Grundschule);10365;Harnackstr. 17;Berlin;52.51004;13.486;;;;;;;;;;;;;
01P11;Plan B Berufsfachschule für Altenpflege des Europäischen Bildungswerks für Beruf und Gesellschaft gGmbH;10179;Alte Jakobstr. 79-80;Berlin;52.51022;13.40802;;;;;;;;;;;;;
02Y05;Dathe-Gymnasium;10243;Helsingforser Str. 11-13;Berlin;52.51026;13.44543;;;;;;;;;;;;;
11P01;Katholische Schule Sankt Mauritius (Grundschule);10365;Schulze-Boysen-Str. 28;Berlin;52.51026;13.47898;;;;;;;;;;;;;
01P39;GPB College gGmbH;10117;Beuthstr. 8;Berlin;52.51037;13.40173;;;;;;;;;;;;;
04Y05;Herder-Gymnasium;14052;Westendallee 45-46;Berlin;52.51059;13.25845;;;;;;;;;;;;;
04B07;OSZ Körperpflege;10625;Schillerstr. 120;Berlin;52.51077;13.31876;;;;;;;;;;;;;
04Y01;Schiller-Gymnasium;10625;Schillerstr. 125-127;Berlin;52.51105;13.32155;;;;;;;;;;;;;
05K08;Schule an der Haveldüne (Integrierte Sekundarschule);13595;Jaczostr. 53-67;Berlin;52.51113;13.18607;;;;;;;;;;;;;
04P04;Katholische Schule Liebfrauen (Gymnasium);14050;Ahornallee 33;Berlin;52.51122;13.27505;;;;;;;;;;;;;
04P01;Katholische Schule Herz Jesu (Grundschule);14055;Insterburgallee 8-10;Berlin;52.51122;13.25293;;;;;;;;;;;;;
11K02;Mildred-Harnack-Schule;10365;Schulze-Boysen-Str. 12;Berlin;52.5113;13.48154;;;;;;;;;;;;;
10G26;Friedrich-Schiller-Grundschule;12623;An der Schule 13-17;Berlin;52.51143;13.61508;;;;;;;;;;;;;
04Y06;Heinz-Berggruen-Gymnasium;14052;Bayernallee 4;Berlin;52.51144;13.26677;;;;;;;;;;;;;
11G06;Adam-Ries-Schule (Grundschule);10315;Alt-Friedrichsfelde 66;Berlin;52.51147;13.53188;;;;;;;;;;;;;
02G08;Grundschule am Traveplatz;10247;Jessnerstr. 24-32;Berlin;52.51154;13.47203;;;;;;;;;;;;;
10Y02;Otto-Nagel-Gymnasium;12683;Schulstr. 11;Berlin;52.51186;13.54958;;;;;;;;;;;;;
04B02;Hans-Litten-Schule (OSZ Recht und Wirtschaft);14059;Danckelmannstr. 26-28;Berlin;52.51195;13.29119;;;;;;;;;;;;;
01P23;Evangelische Schule Berlin Zentrum (Gemeinschaftsschule);10179;Wallstr. 32;Berlin;52.51213;13.41054;;;;;;;;;;;;;
02P30;Concept - Fachschule für Sozialpädagogik;10243;Gubener Str. 47;Berlin;52.51214;13.44855;;;;;;;;;;;;;
04B04;Ruth-Cohn-Schule (OSZ Sozialwesen);10625;Bismarckstr. 20;Berlin;52.5124;13.31315;;;;;;;;;;;;;
01B05;Staatliche Wirtschaftsfachschule für Hotellerie und Gastronomie Berlin;10117;Niederwallstr. 6-7;Berlin;52.51266;13.39829;;;;;;;;;;;;;
02G34;Jane-Goodall-Grundschule;10247;Scharnweberstr. 19;Berlin;52.51275;13.46782;;;;;;;;;;;;;
05G26;Grundschule am Amalienhof;13593;Weinmeisterhornweg 120-122;Berlin;52.51301;13.16758;;;;;;;;;;;;;
01G08;Grundschule am Brandenburger Tor;10117;Wilhelmstr. 52;Berlin;52.51313;13.3828;;;;;;;;;;;;;
04G14;Reinhold-Otto-Grundschule;14050;Leistikowstr. 7-8;Berlin;52.51324;13.26841;;;;;;;;;;;;;
02P13;Netzwerk-Schule (Gemeinschaftsschule);10243;Marchlewskistr. 40;Berlin;52.51357;13.44371;;;;;;;;;;;;;
10P10;Internationale Lomonossow-Schule Berlin Marzahn (Gemeinschaftsschule);12683;Brebacher Weg 15;Berlin;52.51393;13.56886;;;;;;;;;;;;;
02Y01;Andreas-Gymnasium;10243;Koppenstr. 76;Berlin;52.51402;13.43473;;;;;;;;;;;;;
02G07;Ludwig-Hoffmann-Grundschule;10243;Lasdehner Str. 21-23;Berlin;52.51409;13.44866;;;;;;;;;;;;;
02S01;Temple-Grandin-Schule;10243;Lasdehner Str. 19;Berlin;52.51411;13.44946;;;;;;;;;;;;;
04G13;Nehring-Grundschule;14059;Nehringstr. 9-10;Berlin;52.51453;13.29254;;;;;;;;;;;;;
02Y04;Georg-Friedrich-Händel-Gymnasium;10247;Frankfurter Allee 6 A;Berlin;52.51483;13.45574;;;;;;;;;;;;;
04S02;Arno-Fuchs-Schule;10585;Richard-Wagner-Str. 30;Berlin;52.51491;13.30725;;;;;;;;;;;;;
02P20;WBS Training Schulen gGmbH;10247;Voigtstr. 3;Berlin;52.51539;13.46812;;;;;;;;;;;;;
01P14;BEST-Sabel Berufsakademie;10179;Littenstr. 109;Berlin;52.51548;13.4149;;;;;;;;;;;;;
11K06;Schule am Rathaus;10367;Rathausstr. 8;Berlin;52.51556;13.48061;;;;;;;;;;;;;
04P09;IFAG Institut für angewandte Gerontologie;10585;Haubachstr. 8;Berlin;52.51577;13.30555;;;;;;;;;;;;;
04P02;Schele-Schule (Grundschule);14052;Olympische Str. 23;Berlin;52.51598;13.25605;;;;;;;;;;;;;
04K06;Schule am Schloss (Integrierte Sekundarschule);14059;Schloßstr. 55 A;Berlin;52.51602;13.29797;;;;;;;;;;;;;
01G07;GutsMuths-Grundschule;10179;Singerstr. 8;Berlin;52.51618;13.42442;;;;;;;;;;;;;
02K01;Ellen-Key-Schule;10243;Rüdersdorfer Str. 20-27;Berlin;52.51622;13.43828;;;;;;;;;;;;;
11G33;33. Schule (Grundschule);10365;Rüdigerstr. 76;Berlin;52.51634;13.50123;;;;;;;;;;;;;
11S06;Selma-Lagerlöf-Schule;10365;Rüdiger Str. 76;Berlin;52.51634;13.50123;;;;;;;;;;;;;
04P35;Mentora Gymnasium;10587;Salzufer 6;Berlin;52.51641;13.32776;;;;;;;;;;;;;
01Y11;Max-Planck-Gymnasium;10179;Singerstr. 8 A;Berlin;52.51649;13.42336;;;;;;;;;;;;;
02G36;Blumen-Grundschule;10243;Andreasstr. 50;Berlin;52.51661;13.4323;;;;;;;;;;;;;
04B03;OSZ Kraftfahrzeugtechnik;10585;Gierkeplatz 1-3;Berlin;52.51683;13.30204;;;;;;;;;;;;;
02Y03;Heinrich-Hertz-Gymnasium;10247;Rigaer Str. 81-82;Berlin;52.51693;13.46283;;;;;;;;;;;;;
11G05;Schule auf dem lichten Berg (Grundschule);10365;Atzpodienstr. 19;Berlin;52.51704;13.49425;;;;;;;;;;;;;
04B01;Loschmidt-Oberschule;10587;Loschmidtstr. 19;Berlin;52.51735;13.31296;;;;;;;;;;;;;
04G12;Schinkel-Grundschule;10585;Nithackstr. 8;Berlin;52.51762;13.29859;;;;;;;;;;;;;
04P05;Evangelische Schule Charlottenburg (Integrierte Sekundarschule);10587;Guerickestr. 4-6;Berlin;52.51778;13.31562;;;;;;;;;;;;;
01G15;Anne-Frank-Grundschule;10557;Paulstr. 20 B;Berlin;52.51812;13.35602;;;;;;;;;;;;;
05P13;Wilhelmstadt Schulen;13593;Wilhelmstr. 28-30;Berlin;52.51861;13.18261;;;;;;;;;;;;;
02G03;Justus-von-Liebig-Grundschule;10247;Liebigstr. 18A;Berlin;52.51871;13.45787;;;;;;;;;;;;;
02K07;Georg-Weerth-Schule;10249;Eckertstr. 16a;Berlin;52.51875;13.45011;;;;;;;;;;;;;
02G04;Pettenkofer-Grundschule;10247;Pettenkoferstr. 20-24;Berlin;52.51894;13.47073;;;;;;;;;;;;;
04P22;Erste Aktivschule Charlottenburg (Grundschule);10587;Alt-Lietzow 31;Berlin;52.5192;13.31047;;;;;;;;;;;;;
04P27;Schule am Westend;14050;Spandauer Damm 130;Berlin;52.51929;13.27617;;;;;;;;;;;;;
10P13;BEST-Sabel-Grundschule Kaulsdorf;12619;Wernerstr. 48;Berlin;52.51932;13.60068;;;;;;;;;;;;;
02S03;Margarethe-von-Witzleben-Schule;10243;Palisadenstr. 76-77;Berlin;52.51987;13.43468;;;;;;;;;;;;;
01Y12;Gymnasium Tiergarten;10555;Altonaer Str. 26;Berlin;52.51991;13.33976;;;;;;;;;;;;;
05P19;SIS Swiss International School Berlin;13593;Heerstr. 465;Berlin;52.5202221;13.1546599;;;;;;;;;;;;;
05G05;Christoph-Földerich-Grundschule;13595;Földerichplatz 5;Berlin;52.5203;13.19306;;;;;;;;;;;;;
04A08;Sportschule im Olympiapark - Poelchau-Schule;14053;Prinz-Friedrich-Karl-Weg 1;Berlin;52.5203;13.23869;;;;;;;;;;;;;
11P18;Akademie für berufliche Bildung (AFBB) gGmbH;10365;Bornitzstr. 73-75;Berlin;52.5208;13.49068;;;;;;;;;;;;;
02P12;KreativitätsGrundschule Berlin Friedrichshain;10243;Strausberger Str. 38;Berlin;52.52101;13.43208;;;;;;;;;;;;;
02G01;Spartacus-Grundschule;10249;Friedenstr. 40-45;Berlin;52.52103;13.4359;;;;;;;;;;;;;
05G21;Paul-Moor-Grundschule;13595;Adamstr. 24-25;Berlin;52.5211;13.1902;;;;;;;;;;;;;
02P25;Evangelische Schule Berlin Friedrichshain (Grundschule);10249;Petersburger Platz 5;Berlin;52.52114;13.44984;;;;;;;;;;;;;
10G29;Grundschule an der Wuhle;12619;Teterower Ring 79;Berlin;52.52119;13.58081;;;;;;;;;;;;;
04G05;Dietrich-Bonhoeffer-Grundschule;14050;Spandauer Damm 205-215;Berlin;52.52122;13.26104;;;;;;;;;;;;;
01P55;FRÖBEL Akademie gGmbH - Fachschule für Sozialpädagogik;10178;Alexanderstr. 9;Berlin;52.52127;13.41633;;;;;;;;;;;;;
01G19;Hansa-Grundschule;10555;Lessingstr. 5;Berlin;52.52144;13.3403;;;;;;;;;;;;;
02B05;Jane-Addams-Schule (OSZ Sozialwesen);10249;Straßmannstr. 14-16;Berlin;52.52169;13.4485;;;;;;;;;;;;;
10G30;Mahlsdorfer Grundschule;12623;Feldrain 47;Berlin;52.5219;13.6293;;;;;;;;;;;;;
11S07;Carl-von-Linné-Schule;10367;Paul-Junius-Str. 15;Berlin;52.52192;13.47303;;;;;;;;;;;;;
05G22;Christian-Morgenstern-Grundschule;13593;Räcknitzer Steig 12;Berlin;52.52196;13.16934;;;;;;;;;;;;;
01G16;Moabiter Grundschule;10557;Paulstr. 28;Berlin;52.52223;13.35685;;;;;;;;;;;;;
01S07;Charlotte-Pfeffer-Schule;10178;Berolinastr. 8;Berlin;52.52225;13.42417;;;;;;;;;;;;;
11G03;Schule im Gutspark (Grundschule);10367;Josef-Orlopp-Str. 20;Berlin;52.52258;13.48306;;;;;;;;;;;;;
01B02;Staatliche Technikerschule Berlin;10555;Bochumer Str. 8 B;Berlin;52.52267;13.33803;;;;;;;;;;;;;
01P01;Evangelische Schule Berlin Mitte (Gemeinschaftsschule);10178;Rochstr. 7;Berlin;52.52282;13.40619;;;;;;;;;;;;;
05P18;Freie Georgschule;13595;Götelstr. 140;Berlin;52.52308;13.20356;;;;;;;;;;;;;
01P36;BTB Schulzentrum gGmbH;10178;Alexanderstr. 5;Berlin;52.52334;13.41544;;;;;;;;;;;;;
04G08;Mierendorff-Grundschule;10589;Mierendorffstr. 20-24;Berlin;52.52335;13.30301;;;;;;;;;;;;;
01G47;Miriam-Makeba-Grundschule;10555;Zinzendorfstr. 15-16;Berlin;52.52339;13.3315;;;;;;;;;;;;;
11B01;Hein-Moeller-Schule (OSZ Energietechnik II);10315;Allee der Kosmonauten 18;Berlin;52.52346;13.51274;;;;;;;;;;;;;
11P19;Semper Fachschulen gGmbH;10367;Möllendorffstr. 45-52;Berlin;52.5238;13.47998;;;;;;;;;;;;;
01B01;OSZ Banken, Immobilien und Versicherungen;10557;Alt-Moabit 10;Berlin;52.52392;13.35788;;;;;;;;;;;;;
01P42;WWV Bildungsakademie gGmbH;10178;Alexanderstr. 1;Berlin;52.52408;13.41373;;;;;;;;;;;;;
02G02;Hausburg-Grundschule;10249;Hausburgstr. 20;Berlin;52.52425;13.45429;;;;;;;;;;;;;
11P15;Donner + Kern gGmbH;10367;Möllendorffstr. 48;Berlin;52.52431;13.48085;;;;;;;;;;;;;
04P23;Jüdische Traditionsschule;14052;Spandauer Damm 220;Berlin;52.52453;13.25795;;;;;;;;;;;;;
11P20;INHAUS Akademie - Berufsfachschule für Altenpflege;10367;Möllendorffstr. 49;Berlin;52.52459;13.48057;;;;;;;;;;;;;
01K04;Heinrich-von-Stephan-Gemeinschaftsschule;10553;Neues Ufer 6;Berlin;52.52471;13.31662;;;;;;;;;;;;;
11P14;Schulen der BAWI gGmbH;10369;Franz-Jacob-Str. 2;Berlin;52.52498;13.46531;;;;;;;;;;;;;
01P03;Jüdisches Gymnasium Moses Mendelssohn;10115;Große Hamburger Str. 27;Berlin;52.52499;13.39937;;;;;;;;;;;;;
10P14;dreieins-Grundschule Berlin-Kaulsdorf;12619;Peter-Huchel-Straße 35;Berlin;52.52505;13.59205;;;;;;;;;;;;;
02P11;Berlin Bilingual School (Grundschule);10249;Weinstr. 1;Berlin;52.52525;13.4254;;;;;;;;;;;;;
05K03;Bertolt-Brecht-Oberschule (Integrierte Sekundarschule);13595;Wilhelmstr. 10;Berlin;52.52531;13.19316;;;;;;;;;;;;;
05K02;Carlo-Schmid-Oberschule (Integrierte Sekundarschule);13581;Lutoner Str. 15-19;Berlin;52.52536;13.17467;;;;;;;;;;;;;
11P17;Pädalogik GmbH - Fachschule für Sozialpädagogik;10369;Rudolf-Seiffert-Str. 50 A;Berlin;52.52556;13.46915;;;;;;;;;;;;;
05G10;Grundschule am Birkenhain;13581;Seeburger Str. 59;Berlin;52.52561;13.17999;;;;;;;;;;;;;
02K05;Schule am Königstor (Integrierte Sekundarschule);10249;Weinstr. 3;Berlin;52.52574;13.42621;;;;;;;;;;;;;
10G28;Grundschule am Hollerbusch;12619;Erich-Kästner-Str. 64;Berlin;52.52594;13.59486;;;;;;;;;;;;;
01P52;Schulen der ASIG Stiftung e.V.;10553;Kaiserin-Augusta-Allee 14;Berlin;52.52596;13.32158;;;;;;;;;;;;;
01P04;Freie Waldorfschule Berlin Mitte;10178;Weinmeisterstr. 16;Berlin;52.52607;13.40458;;;;;;;;;;;;;
10P20;Chance Bildung, Jugend und Sport BJS gGmbH;12681;Allee der Kosmonauten 35A;Berlin;52.52637;13.5322;;;;;;;;;;;;;
11S05;Schule am grünen Grund;10365;Herzbergstr. 79;Berlin;52.52641;13.50608;;;;;;;;;;;;;
01P40;Berufsfachschule Paulo Freire im Zentrum ÜBERLEBEN;10559;Turmstr. 21;Berlin;52.52642;13.34785;;;;;;;;;;;;;
01G04;Kastanienbaum-Grundschule;10119;Gipsstr. 23 A;Berlin;52.52668;13.40183;;;;;;;;;;;;;
01A04;Berlin-Kolleg;10551;Turmstr. 75;Berlin;52.52669;13.33393;;;;;;;;;;;;;
03S03;Helene-Haeusler-Schule;10405;Mendelssohnstr. 10;Berlin;52.52691;13.41939;;;;;;;;;;;;;
01P16;Berlin Metropolitan School (Integrierte Sekundarschule);10115;Linienstr. 122;Berlin;52.52695;13.3906;;;;;;;;;;;;;
11Y02;Johann-Gottfried-Herder-Gymnasium;10369;Franz-Jacob-Str. 8;Berlin;52.52698;13.46705;;;;;;;;;;;;;
01P54;GFBI gGmbH - Gesellschaft für Berufsbildung und Integration;10551;Turmstr. 44;Berlin;52.52701;13.33455;;;;;;;;;;;;;
05S03;Schule am Gartenfeld;13581;Seecktstr. 2;Berlin;52.52735;13.18877;;;;;;;;;;;;;
01G05;Grundschule Neues Tor;10115;Hannoversche Str. 20;Berlin;52.52739;13.38057;;;;;;;;;;;;;
11G38;38. Schule (Grundschule);10369;Paul-Junius-Str. 69;Berlin;52.52741;13.47756;;;;;;;;;;;;;
01P22;Berlin Cosmopolitan School;10119;Rückerstr. 9;Berlin;52.52776;13.40671;;;;;;;;;;;;;
01G46;Grundschule am Koppenplatz;10115;Koppenplatz 12;Berlin;52.52784;13.39757;;;;;;;;;;;;;
01P05;Katholische Schule Sankt Paulus (Grundschule);10551;Waldenserstr. 27;Berlin;52.52841;13.33481;;;;;;;;;;;;;
01G18;Carl-Bolle-Grundschule;10551;Waldenserstr. 20-21;Berlin;52.52879;13.33227;;;;;;;;;;;;;
10P19;DRK - Schule für soziale Berufe Berlin gGmbH;12681;Meeraner Str. 5;Berlin;52.52889;13.52213;;;;;;;;;;;;;
11G02;Schule am Roederplatz (Grundschule);10367;Bernhard-Bästlein-Str. 22;Berlin;52.52891;13.48219;;;;;;;;;;;;;
04Y04;Gottfried-Keller-Gymnasium;10589;Olbersstr. 38;Berlin;52.52893;13.30226;;;;;;;;;;;;;
10K09;Konrad-Wachsmann-Schule;12627;Geithainer Str. 12;Berlin;52.52902;13.62101;;;;;;;;;;;;;
03K07;Tesla-Schule (Gemeinschaftsschule);10407;Rudi-Arndt-Str. 18;Berlin;52.52906;13.44617;;;;;;;;;;;;;
03G48;48. Schule (Grundschule);10407;Conrad-Blenkle-Str. 20;Berlin;52.52915;13.44917;;;;;;;;;;;;;
11G01;Sonnenuhr-Schule (Grundschule);10369;Franz-Jacob-Str. 33;Berlin;52.52918;13.46704;;;;;;;;;;;;;
10G13;Johann-Strauss-Grundschule;12683;Cecilienstr. 80/81;Berlin;52.52925;13.55996;;;;;;;;;;;;;
10G25;Grundschule am Schleipfuhl;12627;Nossener Str. 85;Berlin;52.52927;13.60814;;;;;;;;;;;;;
10S07;Schule am Rosenhain;12627;Klingenthaler Str. 32;Berlin;52.52964;13.60261;;;;;;;;;;;;;
10G14;Grundschule unter dem Regenbogen;12681;Murtzaner Ring 35/37;Berlin;52.52973;13.54281;;;;;;;;;;;;;
05G01;Ernst-Ludwig-Heim-Grundschule;13597;Grunewaldstr. 8;Berlin;52.53016;13.20687;;;;;;;;;;;;;
05G08;Konkordia-Grundschule;13581;Elsflether Weg 26;Berlin;52.53025;13.19201;;;;;;;;;;;;;
10B01;Oscar-Tietz-Schule (OSZ Handel II);12681;Marzahner Chaussee 231;Berlin;52.53028;13.53316;;;;;;;;;;;;;
01G11;Kurt-Tucholsky-Grundschule;10559;Rathenower Str. 18;Berlin;52.53031;13.35314;;;;;;;;;;;;;
01K07;Hemingway-Schule;10115;Gartenstraße 10-17;Berlin;52.53042;13.39163;;;;;;;;;;;;;
03G02;Heinrich-Roller-Grundschule;10405;Heinrich-Roller-Str. 18;Berlin;52.5306;13.42362;;;;;;;;;;;;;
03P08;Katholisches Schulzentrum Edith Stein;10405;Greifswalder Str. 18;Berlin;52.53073;13.42721;;;;;;;;;;;;;
01Y02;John-Lennon-Gymnasium;10119;Zehdenicker Str. 17;Berlin;52.53083;13.40437;;;;;;;;;;;;;
05G17;Astrid-Lindgren-Grundschule;13591;Südekumzeile 5;Berlin;52.53088;13.15675;;;;;;;;;;;;;
10S04;Schule am Pappelhof;12683;Ketschendorfer Weg 21;Berlin;52.53113;13.55343;;;;;;;;;;;;;
03K01;Kurt-Schwitters-Schule;10405;Greifswalder Str. 25;Berlin;52.5316;13.42824;;;;;;;;;;;;;
11G32;Hans-Rosenthal-Grundschule;10367;Bernhard-Bästlein-Str. 56;Berlin;52.53174;13.48115;;;;;;;;;;;;;
01P51;mediencollege Berlin gGmbH;10115;Invalidenstr. 17;Berlin;52.5319;13.39014;;;;;;;;;;;;;
03P36;WETEK - Fachschule für Sozialpädagogik;10119;Christinenstr. 18-19;Berlin;52.53204;13.41047;;;;;;;;;;;;;
03P43;Pfefferwerk - Fachschule für Sozialpädagogik;10119;Christinenstr. 18/19;Berlin;52.53204;13.41047;;;;;;;;;;;;;
10P09;Sabine-Ball-Grundschule;12627;Lichtenhainer Str. 2;Berlin;52.53245;13.61631;;;;;;;;;;;;;
10G22;Kolibri-Grundschule;12627;Schönewalder Str. 9;Berlin;52.53267;13.61898;;;;;;;;;;;;;
01G02;Papageno-Grundschule;10115;Bergstr. 58;Berlin;52.53279;13.39124;;;;;;;;;;;;;
10Y03;Wilhelm-von-Siemens-Gymnasium;12683;Allee der Kosmonauten 134;Berlin;52.5333;13.55076;;;;;;;;;;;;;
01K09;Hedwig-Dohm-Schule (Integrierte Sekundarschule);10559;Stephanstr. 27;Berlin;52.53356;13.34655;;;;;;;;;;;;;
03G16;Grundschule am Teutoburger Platz;10119;Templiner Str. 1-3;Berlin;52.5336;13.4092;;;;;;;;;;;;;
03P38;S.K.O.U.T. - Fachschule für Sozialpädagogik;10405;Marienburger Str. 18;Berlin;52.53378;13.42685;;;;;;;;;;;;;
03G05;Homer-Grundschule;10407;Pasteurstr. 10/12;Berlin;52.53385;13.43242;;;;;;;;;;;;;
03Y13;Felix-Mendelssohn-Bartholdy-Gymnasium;10407;Pasteurstraße 7;Berlin;52.5341;13.43248;;;;;;;;;;;;;
05G14;Linden-Grundschule;13591;Staakener Feldstr. 6-8;Berlin;52.5341825;13.1407414;;;;;;;;;;;;;
10Y11;Melanchthon-Gymnasium;12627;Adele-Sandrock-Str. 73-75;Berlin;52.53435;13.6187;;;;;;;;;;;;;
10K07;Caspar-David-Friedrich-Schule;12629;Alte Hellersdorfer Str. 7;Berlin;52.53461;13.5892;;;;;;;;;;;;;
01P07;Lazarus Schulen der Hoffnungstaler Stiftung Lobetal;13355;Bernauer Str. 115-118;Berlin;52.53478;13.3886;;;;;;;;;;;;;
03P26;Lauder Beth-Zion Schule (Gemeinschaftsschule);10405;Rykestr. 53;Berlin;52.53498;13.41906;;;;;;;;;;;;;
03G06;Bötzow-Grundschule;10407;John-Schehr-Str. 38;Berlin;52.53503;13.43927;;;;;;;;;;;;;
03G38;Grundschule im Blumenviertel;10407;Syringenplatz 30;Berlin;52.53516;13.4576;;;;;;;;;;;;;
03P03;Schulen Christburg Campus Prenzlauer Berg;10405;Christburger Str. 14;Berlin;52.53524;13.42824;;;;;;;;;;;;;
01K10;Theodor-Heuss-Gemeinschaftsschule;10559;Quitzowstr. 141;Berlin;52.53525;13.3534;;;;;;;;;;;;;
03Y17;Gymnasium am Europasportpark;10407;Kniprodestr. 29;Berlin;52.53526;13.44709;;;;;;;;;;;;;
03P15;AUCOTEAM GmbH;10407;Storkower Str. 115 A;Berlin;52.5355;13.4541;;;;;;;;;;;;;
05G23;Grundschule am Brandwerder;13591;Spandauer Str. 86;Berlin;52.53588;13.15294;;;;;;;;;;;;;
05K09;Schule am Staakener Kleeblatt (Integrierte Sekundarschule);13591;Brunsbütteler Damm 431-437;Berlin;52.53592;13.1319;;;;;;;;;;;;;
03G04;Grundschule an der Marie;10405;Christburger Str. 7;Berlin;52.53607;13.4257;;;;;;;;;;;;;
10A04;Victor-Klemperer-Kolleg;12681;Martha-Arendsee-Str. 15;Berlin;52.53626;13.53893;;;;;;;;;;;;;
11K04;Gutenberg-Schule;13055;Sandinostr. 10;Berlin;52.53659;13.48441;;;;;;;;;;;;;
01Y04;Musikgymnasium Carl Philipp Emanuel Bach;10115;Rheinsberger Str. 4-5;Berlin;52.53665;13.39561;;;;;;;;;;;;;
10K10;Wolfgang-Amadeus-Mozart-Schule (Gemeinschaftsschule);12627;Cottbusser Str. 23;Berlin;52.53683;13.59652;;;;;;;;;;;;;
01G01;Grundschule am Arkonaplatz;10115;Ruppiner Str. 47-48;Berlin;52.53722;13.40023;;;;;;;;;;;;;
11G18;Schule am Wilhelmsberg (Grundschule);13055;Sandinostr. 8 und Mittelstraße 16;Berlin;52.53727;13.48393;;;;;;;;;;;;;
11G17;Brodowin-Schule (Grundschule);13055;Liebenwalder Str. 22;Berlin;52.53735;13.50081;;;;;;;;;;;;;
05P06;Werner-von-Siemens-Werkberufsschule der Siemens AG;13629;Nonnendammallee 104;Berlin;52.53735;13.26056;;;;;;;;;;;;;
03G03;Grundschule am Kollwitzplatz;10435;Knaackstr. 67;Berlin;52.53778;13.41488;;;;;;;;;;;;;
10G12;Grundschule an der Geißenweide;12685;Amanlisweg 40;Berlin;52.53779;13.55222;;;;;;;;;;;;;
01G38;Gustav-Falke-Grundschule;13355;Strelitzer Str. 42;Berlin;52.53797;13.39165;;;;;;;;;;;;;
04B05;Anna-Freud-Schule (OSZ Sozialwesen);13627;Halemweg 22;Berlin;52.53804;13.2876;;;;;;;;;;;;;
05K07;Schule an der Jungfernheide (Integrierte Sekundarschule);13629;Lenther Steig 1-3;Berlin;52.53808;13.26705;;;;;;;;;;;;;
01G48;48. Schule (Grundschule);10115;Boyenstr. 1;Berlin;52.5381627;13.3731249;;;;;;;;;;;;;
05Y05;Lily-Braun-Gymnasium;13597;Münsingerstr. 2;Berlin;52.53828;13.19923;;;;;;;;;;;;;
01P18;Bilinguale Schule Phorms Berlin Mitte;13355;Ackerstr. 76;Berlin;52.53855;13.38441;;;;;;;;;;;;;
05G04;Klosterfeld-Grundschule;13583;Seegefelder Str. 125;Berlin;52.53858;13.18038;;;;;;;;;;;;;
10B02;Rahel-Hirsch-Schule (OSZ Gesundheit/Medizin);12627;Peter-Weiss-Gasse 8;Berlin;52.5386;13.60791;;;;;;;;;;;;;
05B02;Knobelsdorff-Schule (OSZ Bautechnik I);13599;Nonnendammallee 140-143;Berlin;52.53909;13.24309;;;;;;;;;;;;;
01K03;Ernst-Reuter-Schule;13355;Stralsunder Str. 57;Berlin;52.53914;13.39345;;;;;;;;;;;;;
05A03;VHS Spandau - Harri-Reinert;13597;Carl-Schurz-Straße 59;Berlin;52.53915;13.20509;;;;;;;;;;;;;
04G11;Helmuth-James-von-Moltke-Grundschule;13627;Heckerdamm 221;Berlin;52.53926;13.30127;;;;;;;;;;;;;
04G09;Erwin-von-Witzleben-Grundschule;13627;Halemweg 34;Berlin;52.5395;13.28728;;;;;;;;;;;;;
03G45;Grundschule im Hofgarten;10435;Danziger Str. 50;Berlin;52.53958;13.42003;;;;;;;;;;;;;
03P42;Weiterdenker-Fachschule für Sozialpädagogik;10435;Danziger Str. 50;Berlin;52.53958;13.42003;;;;;;;;;;;;;
11K09;Philipp-Reis-Schule (Integrierte Sekundarschule);13055;Werneuchener Str. 15;Berlin;52.53958;13.49579;;;;;;;;;;;;;
10G11;Grundschule an der Mühle;12685;Kienbergstr. 59;Berlin;52.5397;13.56586;;;;;;;;;;;;;
05G15;Askanier-Grundschule;13583;Borkzeile 34;Berlin;52.53975;13.19103;;;;;;;;;;;;;
10S08;Schule am Mummelsoll;12627;Eilenburger Str. 4 (Eingang über Gohliser Str. 51);Berlin;52.54016;13.62885;;;;;;;;;;;;;
01P50;Kristall Grundschule - Inklusive Grundschule in freier Trägerschaft;13353;Tegeler Str. 13;Berlin;52.54022;13.35881;;;;;;;;;;;;;
05Y01;Freiherr-vom-Stein-Gymnasium;13597;Galenstraße 40-44;Berlin;52.54048;13.19986;;;;;;;;;;;;;
01P13;Freie Schule am Mauerpark (Grundschule);13355;Wolliner Str. 25/26;Berlin;52.54066;13.40121;;;;;;;;;;;;;
10G19;Bücherwurm-Schule am Weiher (Grundschule);12627;Eilenburger Str. 1;Berlin;52.54068;13.62914;;;;;;;;;;;;;
03G46;Grundschule im Eliashof;10437;Senefelderstr. 6;Berlin;52.54077;13.42271;;;;;;;;;;;;;
03K04;Gustave-Eiffel-Schule;10409;Hanns-Eisler-Str. 78-80;Berlin;52.54081;13.44864;;;;;;;;;;;;;
05G16;Zeppelin-Grundschule;13591;Heidebergplan 3-4;Berlin;52.54093;13.14638;;;;;;;;;;;;;
03G12;Paul-Lincke-Grundschule;10409;Pieskower Weg 39;Berlin;52.54111;13.44585;;;;;;;;;;;;;
05G11;Robert-Reinick-Grundschule;13629;Jungfernheideweg 32-48;Berlin;52.54124;13.27384;;;;;;;;;;;;;
01G28;Brüder-Grimm-Grundschule;13353;Tegeler Str. 18-19;Berlin;52.54129;13.35784;;;;;;;;;;;;;
03G08;Grundschule am Planetarium;10405;Ella-Kay-Str. 47;Berlin;52.54139;13.43092;;;;;;;;;;;;;
11Y10;Manfred-von-Ardenne-Gymnasium;13055;Werneuchener Str. 27-28;Berlin;52.54177;13.49308;;;;;;;;;;;;;
01G39;Vineta-Grundschule;13355;Demminer Str. 27;Berlin;52.54207;13.39691;;;;;;;;;;;;;
01S05;Schule in der Charité;13353;Augustenburger Platz 1;Berlin;52.54234;13.34785;;;;;;;;;;;;;
03P45;PepperMont Freie Sekundarschule für ganzheitliches Lernen;10409;Greifswalder Straße 88;Berlin;52.54241;13.44142;;;;;;;;;;;;;
10Y08;Sartre-Gymnasium;12629;Kyritzer Str. 103;Berlin;52.54257;13.59067;;;;;;;;;;;;;
10G18;Pusteblume-Grundschule;12627;Kastanienallee 118;Berlin;52.54266;13.60073;;;;;;;;;;;;;
01S01;Schule am Zille-Park;13347;Ravenéstr. 10-12;Berlin;52.54291;13.37285;;;;;;;;;;;;;
05Y02;Kant-Gymnasium;13585;Bismarckstr. 54;Berlin;52.54302;13.20056;;;;;;;;;;;;;
10K02;Ernst-Haeckel-Schule;12629;Luckenwalder Str. 53;Berlin;52.54314;13.58613;;;;;;;;;;;;;
01G35;Humboldthain-Grundschule;13355;Grenzstr. 7;Berlin;52.54351;13.38025;;;;;;;;;;;;;
05B01;OSZ TIEM (Technische Informatik, Industrieelektronik und EnergieManagement);13599;Goldbeckweg 8-14;Berlin;52.54364;13.23023;;;;;;;;;;;;;
11G19;Obersee-Schule (Grundschule);13053;Roedernstr. 69-72;Berlin;52.54372;13.48809;;;;;;;;;;;;;
01P46;DDA Destiny Diversity Academy GmbH;13355;Brunnenstr. 110 D;Berlin;52.54404;13.39065;;;;;;;;;;;;;
05G28;Grundschule an der Pulvermühle;13599;Grützmacherweg 7;Berlin;52.54404;13.22681;;;;;;;;;;;;;
05G27;Peter-Härtling-Grundschule;13585;Flankenschanze 20;Berlin;52.54406;13.19802;;;;;;;;;;;;;
05P02;Katholische Schule Bernhard Lichtenberg (Grundschule);13585;Hohenzollernring 156-159;Berlin;52.54427;13.19248;;;;;;;;;;;;;
03P30;Freie Waldorfschule am Prenzlauer Berg;10409;Gürtelstr. 16;Berlin;52.54429;13.454;;;;;;;;;;;;;
05G13;Bernd-Ryke-Grundschule;13599;Daumstr. 12;Berlin;52.54452;13.23274;;;;;;;;;;;;;
01G45;Leo-Lionni-Grundschule;13353;Müllerstr. 158;Berlin;52.54455;13.36193;;;;;;;;;;;;;
08P15;IB-Berlin-Brandenburg gGmbH - Medizinische Akademie Berlin;13347;Gerichtstr. 27;Berlin;52.54463;13.37098;;;;;;;;;;;;;
10K05;Jean-Piaget-Schule;12629;Mittenwalder Str. 5;Berlin;52.54543;13.59591;;;;;;;;;;;;;
11A07;Schul- und Leistungssportzentrum Berlin (Sportforum);13053;Fritz-Lesch-Str. 35;Berlin;52.54557;13.47602;;;;;;;;;;;;;
03Y03;Käthe-Kollwitz-Gymnasium;10439;Dunckerstr. 65-66;Berlin;52.54562;13.42332;;;;;;;;;;;;;
05K06;Wolfgang-Borchert-Schule (Integrierte Sekundarschule);13585;Blumenstr. 13;Berlin;52.5457;13.19705;;;;;;;;;;;;;
03B07;Elinor-Ostrom-Schule (OSZ Bürowirtschaft und Dienstleistungen);10409;Mandelstr. 6-8;Berlin;52.54572;13.44137;;;;;;;;;;;;;
05Y04;Carl-Friedrich-von-Siemens-Gymnasium;13629;Jungfernheideweg 79;Berlin;52.5458;13.27011;;;;;;;;;;;;;
03B08;Staatliche Ballett- und Artistikschule Berlin;10409;Erich-Weinert-Str. 103;Berlin;52.54595;13.43586;;;;;;;;;;;;;
03Y04;Heinrich-Schliemann-Gymnasium;10439;Dunckerstr. 64;Berlin;52.54637;13.424;;;;;;;;;;;;;
01K06;Herbert-Hoover-Schule (Integrierte Sekundarschule);13357;Pankstr. 18-19;Berlin;52.54649;13.37311;;;;;;;;;;;;;
05K05;B.-Traven-Gemeinschaftsschule;13583;Recklinghauser Weg 26-32;Berlin;52.5466;13.17402;;;;;;;;;;;;;
03G09;Thomas-Mann-Grundschule;10437;Greifenhagener Str. 58;Berlin;52.54673;13.41491;;;;;;;;;;;;;
01K02;Ernst-Schering-Schule;13353;Lütticher Str. 47-48;Berlin;52.54673;13.34799;;;;;;;;;;;;;
01G31;Wedding-Grundschule;13347;Antonstr. 10;Berlin;52.54698;13.36372;;;;;;;;;;;;;
01G37;Heinrich-Seidel-Grundschule;13355;Ramlerstr. 9-10;Berlin;52.5472;13.393;;;;;;;;;;;;;
03G11;Schule am Falkplatz (Grundschule);10437;Gleimstr. 49;Berlin;52.54721;13.40626;;;;;;;;;;;;;
05K01;Martin-Buber-Oberschule (Integrierte Sekundarschule);13589;Im Spektefeld 33;Berlin;52.54753;13.15586;;;;;;;;;;;;;
03G18;Picasso-Grundschule;13088;Gounodstr. 71;Berlin;52.54761;13.46188;;;;;;;;;;;;;
11G34;34. Schule (Grundschule);13055;Konrad-Wolf-Str. 11;Berlin;52.54768;13.49867;;;;;;;;;;;;;
11G36;36. Schule (Grundschule);13055;Konrad-Wolf-Str. 11;Berlin;52.54768;13.49867;;;;;;;;;;;;;
05G07;Lynar-Grundschule;13585;Lutherstr. 19-20;Berlin;52.54777;13.20676;;;;;;;;;;;;;
03P18;dreieins-Grundschule Berlin-Pankow;13088;Bizetstr. 64;Berlin;52.54784;13.45612;;;;;;;;;;;;;
10G10;Peter-Pan-Grundschule;12679;Stolzenhagener Str. 9;Berlin;52.54815;13.55209;;;;;;;;;;;;;
05G30;Birken-Grundschule;13585;Hügelschanze 8;Berlin;52.54855;13.19806;;;;;;;;;;;;;
05G18;Grundschule im Beerwinkel;13589;Im Spektefeld 31;Berlin;52.54869;13.15697;;;;;;;;;;;;;
03K11;Wilhelm-von-Humboldt-Gemeinschaftsschule;10439;Erich-Weinert-Str. 70;Berlin;52.54882;13.42523;;;;;;;;;;;;;
05S01;Schule am Grüngürtel;13585;Askanierring 42;Berlin;52.54897;13.19385;;;;;;;;;;;;;
01G43;Albert-Gutzmann-Schule (Grundschule);13357;Orthstr. 1;Berlin;52.5493;13.37366;;;;;;;;;;;;;
01S06;Albert-Gutzmann-Schule;13357;Orthstr. 1;Berlin;52.5493;13.37366;;;;;;;;;;;;;
03P13;Freie Schule Pankow (Integrierte Sekundarschule);13086;Langhansstr. 8;Berlin;52.54934;13.4487;;;;;;;;;;;;;
05P15;Immanuel-Grundschule;13589;Stadtrandstr. 465;Berlin;52.54994;13.1525;;;;;;;;;;;;;
01Y09;Diesterweg-Gymnasium;13357;Böttgerstr. 2-6;Berlin;52.55018;13.37851;;;;;;;;;;;;;
01G41;Erika-Mann-Grundschule;13347;Utrechter Str. 25-27;Berlin;52.55046;13.35841;;;;;;;;;;;;;
03P10;Katholische Theresienschule (Gymnasium);13086;Behaimstr. 29;Berlin;52.55049;13.44657;;;;;;;;;;;;;
01G42;Anna-Lindh-Schule (Grundschule);13351;Guineastr. 17-18;Berlin;52.55054;13.34194;;;;;;;;;;;;;
10G09;Grundschule am Bürgerpark;12679;Jan-Petersen-Str. 18 B;Berlin;52.55065;13.56484;;;;;;;;;;;;;
10P22;MANEGE gGmbH;12681;Otto-Rosenberg-Str. 1;Berlin;52.55074;13.54629;;;;;;;;;;;;;
03G25;Carl-Humann-Grundschule;10439;Scherenbergstr. 7;Berlin;52.55085;13.42162;;;;;;;;;;;;;
03K05;Heinz-Brandt-Schule;13086;Langhansstr. 120;Berlin;52.55119;13.44178;;;;;;;;;;;;;
01K01;Willy-Brandt-Schule;13357;Grüntaler Str. 5;Berlin;52.55123;13.3858;;;;;;;;;;;;;
05G06;Siegerland-Grundschule;13589;Hermann-Schmidt-Weg 4;Berlin;52.55128;13.17718;;;;;;;;;;;;;
03Y14;Primo-Levi-Gymnasium;13086;Pistoriusstr. 133;Berlin;52.55132;13.45427;;;;;;;;;;;;;
03P11;Stephanus-Schule;13086;Albertinenstr. 20;Berlin;52.55172;13.45905;;;;;;;;;;;;;
01G25;Rudolf-Wissell-Grundschule;13357;Ellerbeker Str. 7-8;Berlin;52.55174;13.39564;;;;;;;;;;;;;
03G44;Georg-Zacharias-Grundschule;13088;Sulzfelder Str. 15;Berlin;52.55179;13.47514;;;;;;;;;;;;;
11G21;Schule Am Faulen See (Grundschule);13053;Degnerstr. 71;Berlin;52.55184;13.49828;;;;;;;;;;;;;
03A04;Abendgymnasium Prenzlauer Berg;10439;Driesener Str. 22;Berlin;52.55202;13.40569;;;;;;;;;;;;;
03B04;Brillat-Savarin-Schule (OSZ Gastgewerbe);13088;Buschallee 23 A;Berlin;52.55288;13.47573;;;;;;;;;;;;;
03P39;Stephanus-Grundschule;13086;Parkstr. 22;Berlin;52.55311;13.457;;;;;;;;;;;;;
10G07;Karl-Friedrich-Friesen-Grundschule;12687;Max-Herrmann-Str. 5;Berlin;52.55315;13.56404;;;;;;;;;;;;;
10Y01;Tagore-Gymnasium;12687;Sella-Hasse-Str. 25;Berlin;52.5532;13.55618;;;;;;;;;;;;;
10P03;Gesellschaft für Pflege- und Sozialberufe gGmbH;12681;Bitterfelder Str. 13;Berlin;52.55331;13.54293;;;;;;;;;;;;;
01G27;Gesundbrunnen-Grundschule;13357;Prinzenallee 8;Berlin;52.55338;13.38281;;;;;;;;;;;;;
03P14;Freie Grundschule Pfefferwerk;10439;Schönfließer Str. 7;Berlin;52.55344;13.40885;;;;;;;;;;;;;
01P48;meco Akademie GmbH;13347;Seestr. 64;Berlin;52.55373;13.35951;;;;;;;;;;;;;
03G01;Schule am Hamburger Platz (Grundschule);13086;Gustav-Adolf-Str. 21;Berlin;52.55389;13.43695;;;;;;;;;;;;;
03G17;Grundschule am Weißen See;13088;Falkenberger Str. 31;Berlin;52.55403;13.4768;;;;;;;;;;;;;
11K11;Paul-Schmidt-Schule (Integrierte Sekundarschule);13053;Malchower Weg 54;Berlin;52.55457;13.50419;;;;;;;;;;;;;
01G40;Möwensee-Grundschule;13351;Afrikanische Str. 123-125;Berlin;52.55478;13.33491;;;;;;;;;;;;;
03P27;Klax Berufsakademie;13086;Langhansstr. 74B;Berlin;52.55528;13.43069;;;;;;;;;;;;;
03G14;Bornholmer Grundschule;10439;Ibsenstr. 17;Berlin;52.55562;13.40774;;;;;;;;;;;;;
10K01;Rudolf-Virchow-Schule;12679;Glambecker Ring 90;Berlin;52.55587;13.57582;;;;;;;;;;;;;
03G41;Trelleborg-Schule (Grundschule);13189;Eschengraben 40;Berlin;52.55604;13.42207;;;;;;;;;;;;;
01G24;Gottfried-Röhl-Grundschule;13349;Ungarnstr. 75;Berlin;52.55629;13.35713;;;;;;;;;;;;;
05G25;Grundschule am Wasserwerk;13589;Pionierstr. 197;Berlin;52.55634;13.16466;;;;;;;;;;;;;
05S04;Schule am Stadtrand;13589;Pionierstr. 197;Berlin;52.55634;13.16466;;;;;;;;;;;;;
01K08;Schule am Schillerpark (Integrierte Sekundarschule);13349;Ofener Str. 6;Berlin;52.55636;13.34579;;;;;;;;;;;;;
01B03;OSZ Kommunikations-, Informations- und Medientechnik;13359;Osloer Str. 23-26;Berlin;52.55721;13.3803;;;;;;;;;;;;;
01Y08;Lessing-Gymnasium;13349;Schöningstr. 17;Berlin;52.55732;13.34394;;;;;;;;;;;;;
01G29;Wilhelm-Hauff-Grundschule;13359;Gotenburger Str. 8;Berlin;52.55761;13.38353;;;;;;;;;;;;;
01B04;OSZ Gesundheit I;13349;Schwyzer Str. 6-8;Berlin;52.55766;13.35345;;;;;;;;;;;;;
08B05;Carl-Legien-Schule (Schulbetrieb an 01B04);13349;Schwyzer Str. 6-8;Berlin;52.55766;13.35345;;;;;;;;;;;;;
03K02;Kurt-Tucholsky-Schule (Integrierte Sekundarschule);13189;Neumannstr. 9-11;Berlin;52.55775;13.42337;;;;;;;;;;;;;
10K12;Gretel-Bergmann-Gemeinschaftsschule;12687;Liebensteiner Str. 24;Berlin;52.55793;13.56014;;;;;;;;;;;;;
05G02;Grundschule am Eichenwald;13587;Gaismannshofer Weg 2;Berlin;52.55838;13.19909;;;;;;;;;;;;;
10P21;D&B Dienstleistung und Bildung gGmbH;12681;Leunaer Str. 7;Berlin;52.5584;13.55311;;;;;;;;;;;;;
03K08;Hagenbeck-Schule;13086;Gustav-Adolf-Str. 60;Berlin;52.55889;13.4475;;;;;;;;;;;;;
03G20;Grundschule im Moselviertel;13088;Brodenbacher Weg 31;Berlin;52.55932;13.47695;;;;;;;;;;;;;
10P23;dispo - Tf School of Social Work GmbH;12681;Wolfener Str. 32-34;Berlin;52.55965;13.55107;;;;;;;;;;;;;
03G37;Klecks-Grundschule;13187;Brixener Str. 40;Berlin;52.55972;13.40755;;;;;;;;;;;;;
03P40;SAfS - Spektrum Akademie für Sozialpädagogik;13089;Tino-Schiwerzina-Str. 32;Berlin;52.56009;13.43359;;;;;;;;;;;;;
12P23;Eventus - Fachschule für Sozialpädagogik;13409;Markstr. 36-37;Berlin;52.56111;13.36513;;;;;;;;;;;;;
01G32;Carl-Kraemer-Grundschule;13359;Zechliner Str. 4;Berlin;52.56116;13.38282;;;;;;;;;;;;;
03P22;Klax-Gemeinschaftsschule;13189;Neumannstr. 13 A;Berlin;52.56124;13.42233;;;;;;;;;;;;;
12B01;Georg-Schlesinger-Schule (OSZ Maschinen- und Fertigungstechnik);13409;Kühleweinstr. 5;Berlin;52.56205;13.37068;;;;;;;;;;;;;
03P24;Ting-Schule (Integrierte Sekundarschule);13189;Berliner Str. 100;Berlin;52.56208;13.41339;;;;;;;;;;;;;
12G02;Grundschule am Schäfersee;13407;Baseler Str. 2-6;Berlin;52.56263;13.35544;;;;;;;;;;;;;
11S08;Schule Am Breiten Luch;13053;Am Breiten Luch 19;Berlin;52.56285;13.51344;;;;;;;;;;;;;
03K09;Janusz-Korczak-Schule (Integrierte Sekundarschule);13187;Dolomitenstr. 94;Berlin;52.56307;13.4077;;;;;;;;;;;;;
10G05;Ebereschen-Grundschule;12689;Borkheider Str. 28;Berlin;52.56361;13.5719;;;;;;;;;;;;;
11G22;Martin-Niemöller-Grundschule;13053;Am Breiten Luch 5;Berlin;52.56361;13.51258;;;;;;;;;;;;;
12G03;Reginhard-Grundschule;13409;Letteallee 39-41;Berlin;52.56381;13.37034;;;;;;;;;;;;;
10K11;Marcana-Schule (Gemeinschaftsschule);12689;Flämingstr. 16-18;Berlin;52.56398;13.56564;;;;;;;;;;;;;
11G26;Randow-Schule (Grundschule);13057;Randowstr. 45;Berlin;52.56399;13.51903;;;;;;;;;;;;;
11G10;Schule im Ostseekarree (Grundschule);13051;Barther Str. 27;Berlin;52.56432;13.49994;;;;;;;;;;;;;
03G39;Grundschule Wolkenstein;13189;Neumannstr. 65;Berlin;52.56508;13.42032;;;;;;;;;;;;;
03G22;Grundschule am Wasserturm;13089;Tino-Schwierzina-Str. 66;Berlin;52.5654;13.43685;;;;;;;;;;;;;
05K04;Heinrich-Böll-Oberschule (Integrierte Sekundarschule);13587;Am Forstacker 9/11;Berlin;52.56541;13.19785;;;;;;;;;;;;;
01G36;Andersen-Grundschule;13359;Kattegatstr. 26;Berlin;52.56548;13.38886;;;;;;;;;;;;;
10G04;Falken-Grundschule;12689;Geraer Ring 2;Berlin;52.5659;13.55634;;;;;;;;;;;;;
01P49;Quinoa-Schule Freie Sekundarschule Berlin Wedding;13409;Kühnemannstr. 26;Berlin;52.56615;13.38111;;;;;;;;;;;;;
03Y08;Carl-von-Ossietzky-Gymnasium;13187;Görschstr. 42-44;Berlin;52.56648;13.40044;;;;;;;;;;;;;
10K03;Kerschensteiner-Schule;12689;Golliner Str. 2;Berlin;52.56675;13.57949;;;;;;;;;;;;;
03Y10;Rosa-Luxemburg-Gymnasium;13189;Kissingenstr. 12;Berlin;52.56677;13.41958;;;;;;;;;;;;;
05G20;Carl-Schurz-Grundschule;13587;Hakenfelder Str. 32;Berlin;52.56749;13.19904;;;;;;;;;;;;;
03G26;Arnold-Zweig-Grundschule;13187;Wollankstr. 131;Berlin;52.56761;13.40041;;;;;;;;;;;;;
05P03;Evangelische Schule Spandau im Johannesstift;13587;Schönwalder Allee 26;Berlin;52.56769;13.19244;;;;;;;;;;;;;
05P04;August Hermann Francke Schule;13587;Schönwalder Allee 26;Berlin;52.56769;13.19244;;;;;;;;;;;;;
05P10;Soziale Fachschulen Johannesstift Diakonie gGmbH;13587;Schönwalder Allee 26;Berlin;52.56769;13.19244;;;;;;;;;;;;;
10G03;Selma-Lagerlöf-Grundschule;12689;Wörlitzer Str. 31;Berlin;52.56772;13.57001;;;;;;;;;;;;;
11K07;Vincent-van-Gogh-Schule (Integrierte Sekundarschule);13051;Wustrower Str. 26;Berlin;52.56793;13.50688;;;;;;;;;;;;;
03G27;Elizabeth-Shaw-Grundschule;13187;Grunowstr. 17;Berlin;52.56802;13.41037;;;;;;;;;;;;;
03K06;Reinhold-Burger-Schule;13187;Neue Schönholzer Str. 32;Berlin;52.56811;13.4022;;;;;;;;;;;;;
11G28;Feldmark-Schule (Grundschule);13057;Wartiner Str. 23;Berlin;52.56832;13.53278;;;;;;;;;;;;;
03P21;Freie Integrative Montessori Grundschule Pankow;13187;Hadlichstr. 2;Berlin;52.56839;13.4133;;;;;;;;;;;;;
03P28;Platanus Schule Berlin (Gemeinschaftsschule);13187;Berliner Str. 12;Berlin;52.5684;13.41158;;;;;;;;;;;;;
03P20;SchuleEins (Gemeinschaftsschule);13187;Berliner Str.120/121;Berlin;52.56848;13.41225;;;;;;;;;;;;;
11G25;Schule am Wäldchen (Grundschule);13051;Wustrower Str. 28;Berlin;52.56857;13.50615;;;;;;;;;;;;;
11Y09;Barnim-Gymnasium;13057;Ahrensfelder Chaussee 41;Berlin;52.56918;13.54932;;;;;;;;;;;;;
12Y01;Friedrich-Engels-Gymnasium;13407;Emmentaler Str. 67;Berlin;52.56939;13.3572;;;;;;;;;;;;;
12G07;Mark-Twain-Grundschule;13403;Auguste-Viktoria-Allee 95;Berlin;52.56952;13.32646;;;;;;;;;;;;;
12G06;Hausotter-Grundschule;13409;Hausotterplatz 4;Berlin;52.56964;13.37499;;;;;;;;;;;;;
10G34;34. Schule (Grundschule);12689;Geraer Ring 54;Berlin;52.56968;13.56197;;;;;;;;;;;;;
03P37;Berlin Bilingual School (Integrierte Sekundarschule);13189;Granitzstr. 38A;Berlin;52.56998;13.42355;;;;;;;;;;;;;
10K08;Johann-Julius-Hecker-Schule;12689;Hohenwalder Str. 2;Berlin;52.57003;13.57859;;;;;;;;;;;;;
12K05;Gustav-Freytag-Schule (Integrierte Sekundarschule);13409;Breitkopfstr. 66-80;Berlin;52.57015;13.36566;;;;;;;;;;;;;
11K05;Fritz-Reuter-Schule;13059;Prendener Str. 29;Berlin;52.57016;13.52092;;;;;;;;;;;;;
10G01;Paavo-Nurmi-Grundschule;12689;Schorfheidestr. 42;Berlin;52.57077;13.57631;;;;;;;;;;;;;
11G29;Matibi-Schule (Grundschule);13059;Prendener Str. 15;Berlin;52.57125;13.52115;;;;;;;;;;;;;
12K03;Max-Beckmann-Schule (Integrierte Sekundarschule);13403;Auguste-Viktoria-Allee 37;Berlin;52.5714;13.31443;;;;;;;;;;;;;
12Y02;Europäisches Gymnasium Bertha-von-Suttner;13409;Reginhardstraße 172;Berlin;52.57149;13.36865;;;;;;;;;;;;;
11K10;Grüner Campus Malchow (Gemeinschaftsschule);13051;Malchower Chaussee 2;Berlin;52.57188;13.48442;;;;;;;;;;;;;
12Y06;Schulfarm Insel Scharfenberg;13505;Schwarzer Weg 101-105;Berlin;52.5727582;13.2462529;;;;;;;;;;;;;
12K04;Paul-Löbe-Schule;13407;Lindauer Allee 23-25;Berlin;52.57339;13.35383;;;;;;;;;;;;;
12G29;Hermann-Schulz-Grundschule;13403;Kienhorststr. 67-79;Berlin;52.57354;13.32538;;;;;;;;;;;;;
12G14;Alfred-Brehm-Grundschule;13507;Ascheberger Weg 8 A;Berlin;52.57358;13.28371;;;;;;;;;;;;;
12G30;Reineke-Fuchs-Grundschule;13403;Foxweg 15;Berlin;52.57378;13.31031;;;;;;;;;;;;;
03G34;Mendel-Grundschule;13187;Stiftsweg 3;Berlin;52.57379;13.41568;;;;;;;;;;;;;
12G04;Till-Eulenspiegel-Grundschule;13407;Humboldtstr. 8-13;Berlin;52.57388;13.34289;;;;;;;;;;;;;
12P22;Mosaik Fachschule für Sozialpädagogik;13507;Flohrstr. 21;Berlin;52.57468;13.29957;;;;;;;;;;;;;
12G05;Kolumbus-Grundschule;13409;Büchsenweg 23 A;Berlin;52.57552;13.36708;;;;;;;;;;;;;
12P21;Berufsfachschule für Altenpflege;13403;Waldstr. 86-90;Berlin;52.57556;13.32593;;;;;;;;;;;;;
12G18;Grundschule am Tegelschen Ort;13505;Gerlindeweg 11-23;Berlin;52.57664;13.22775;;;;;;;;;;;;;
03G28;Hasengrund-Schule (Grundschule);13156;Hermann-Hesse-Str. 48-52;Berlin;52.57799;13.39449;;;;;;;;;;;;;
03G47;47. Schule (Grundschule);13187;Mendelstr. 54;Berlin;52.57817;13.41777;;;;;;;;;;;;;
03S09;Schule an der Strauchwiese;13187;Mendelstr. 54;Berlin;52.57817;13.41777;;;;;;;;;;;;;
12G01;Havelmüller-Grundschule;13507;Namslaustr. 49-57;Berlin;52.57829;13.28509;;;;;;;;;;;;;
03S08;Panke-Schule;13187;Klaustaler Str. 21;Berlin;52.5789;13.42009;;;;;;;;;;;;;
03B06;Konrad-Zuse-Schule;13156;Hermann-Hesse-Str. 34/36;Berlin;52.57933;13.39582;;;;;;;;;;;;;
03G32;Grundschule an den Buchen;13156;Wilhelm-Wolff-Str. 19;Berlin;52.5796;13.39492;;;;;;;;;;;;;
03P12;Evangelische Schule Pankow (Grundschule);13187;Galenusstr. 60 a;Berlin;52.58034;13.42252;;;;;;;;;;;;;
12P13;Euro Akademie Berlin;13507;Berliner Str. 66;Berlin;52.58077;13.29202;;;;;;;;;;;;;
12K06;Benjamin-Franklin-Schule (Integrierte Sekundarschule);13509;Sommerfelder Str. 5-7;Berlin;52.58142;13.30089;;;;;;;;;;;;;
12P18;RENAFAN Akademie gGmbH;13507;Berliner Str. 36/37;Berlin;52.5819;13.28998;;;;;;;;;;;;;
03K03;Konrad-Duden-Schule (Integrierte Sekundarschule);13156;Rolandstr. 35;Berlin;52.58194;13.41759;;;;;;;;;;;;;
03G36;Elisabeth-Christinen-Grundschule;13156;Buchholzer Str. 3;Berlin;52.58263;13.40752;;;;;;;;;;;;;
03Y15;Max-Delbrück-Gymnasium;13156;Kuckhoffstr. 2;Berlin;52.58383;13.40213;;;;;;;;;;;;;
12S01;Stötzner-Schule;13509;Tietzstr. 26-28;Berlin;52.58423;13.3049;;;;;;;;;;;;;
03P41;Naturschule am Brosepark;13156;Dietzgenstr. 49;Berlin;52.58464;13.4023;;;;;;;;;;;;;
12G11;Ringelnatz-Grundschule;13437;Wilhelm-Gericke-Str. 7-13;Berlin;52.58609;13.3376;;;;;;;;;;;;;
03P44;St. Hildegard Akademie gGmbH;13158;Hertzstr. 67;Berlin;52.58633;13.35619;;;;;;;;;;;;;
12P24;G.A.L.B Förderung gGmbH;13509;Holzhauser Straße 180;Berlin;52.58665;13.3187;;;;;;;;;;;;;
12G10;Peter-Witte-Grundschule;13437;Rathauspromenade 75;Berlin;52.58673;13.32969;;;;;;;;;;;;;
12G15;Hoffmann-von-Fallersleben-Grundschule;13509;Ziekowstr. 80-88;Berlin;52.58735;13.29518;;;;;;;;;;;;;
12G13;Franz-Marc-Grundschule;13507;Treskowstr. 26-31;Berlin;52.58845;13.28247;;;;;;;;;;;;;
12K01;Julius-Leber-Schule;13507;Treskowstr. 26-31;Berlin;52.58845;13.28247;;;;;;;;;;;;;
12S06;Toulouse-Lautrec-Schule;13509;Miraustr. 126;Berlin;52.58902;13.30387;;;;;;;;;;;;;
12K07;Jean-Krämer-Schule (Integrierte Sekundarschule) Wittenau;13437;Alt-Wittenau 8-12;Berlin;52.58976;13.33554;;;;;;;;;;;;;
03G43;Grundschule Wilhelmsruh;13158;Lessingstr. 44;Berlin;52.59028;13.36445;;;;;;;;;;;;;
03G13;Grundschule in Rosenthal;13158;Kastanienallee 59;Berlin;52.59113;13.37611;;;;;;;;;;;;;
12Y03;Humboldt-Gymnasium;13509;Hatzfeldtallee 2-4;Berlin;52.59185;13.28865;;;;;;;;;;;;;
12G09;Grundschule an der Peckwisch;13439;Tornower Weg 26-34;Berlin;52.59209;13.34799;;;;;;;;;;;;;
12Y04;Gabriele-von-Bülow-Gymnasium;13509;Tile-Brügge-Weg 63;Berlin;52.59214;13.29653;;;;;;;;;;;;;
03G21;Grundschule unter den Bäumen;13129;Alt-Blankenburg 26;Berlin;52.59215;13.45447;;;;;;;;;;;;;
03B02;Berufliche Schule für Sozialwesen Pankow;13158;Erbeskopfweg 6-10;Berlin;52.59352;13.40039;;;;;;;;;;;;;
12P14;Montessori Campus am Tegeler Forst;13507;Gabrielenstr. 12-18;Berlin;52.59382;13.27805;;;;;;;;;;;;;
12S04;Schule am Park;13437;Eichborndamm 276-284;Berlin;52.59401;13.32988;;;;;;;;;;;;;
12G26;Märkische Grundschule;13439;Dannenwalder Weg 163-165;Berlin;52.59533;13.36005;;;;;;;;;;;;;
12G32;Charlie-Chaplin-Grundschule;13439;Wilhelmsruher Damm 90-94;Berlin;52.59754;13.36504;;;;;;;;;;;;;
12B02;Emil-Fischer-Schule (OSZ Ernährung und Lebensmitteltechnik);13437;Cyclopstr. 1 - 5;Berlin;52.59804;13.33048;;;;;;;;;;;;;
12B03;Ernst-Litfaß-Schule (OSZ Mediengestaltung und Medientechnologie);13437;Cyclopstr. 1-5;Berlin;52.59804;13.33048;;;;;;;;;;;;;
12Y08;Thomas-Mann-Gymnasium;13439;Königshorster Str. 10;Berlin;52.59862;13.35179;;;;;;;;;;;;;
12Y07;Romain-Rolland-Gymnasium;13469;Place Molière 4;Berlin;52.59952;13.31763;;;;;;;;;;;;;
12P02;Waldorfschule Märkisches Viertel Berlin;13439;Treuenbrietzener Str. 28;Berlin;52.60038;13.36436;;;;;;;;;;;;;
12K12;Campus Hannah Höch (Gemeinschaftsschule);13435;Finsterwalder Str. 52-56;Berlin;52.60058;13.34315;;;;;;;;;;;;;
12G27;Chamisso-Grundschule;13435;Senftenberger Ring 27;Berlin;52.60167;13.35818;;;;;;;;;;;;;
12K02;Bettina-von-Arnim-Schule;13435;Senftenberger Ring 49;Berlin;52.60359;13.35491;;;;;;;;;;;;;
12G33;Lauterbach-Grundschule;13435;Senftenberger Ring 41;Berlin;52.60371;13.35946;;;;;;;;;;;;;
12S03;Lauterbach-Schule;13435;Senftenberger Ring 41;Berlin;52.60371;13.35946;;;;;;;;;;;;;
03G33;Jeanne-Barez-Schule (Grundschule);13127;Hauptstr. 66;Berlin;52.60418;13.43405;;;;;;;;;;;;;
12P19;APEGO-Schule Berlin (Gemeinschaftsschule);13469;Dianastr. 44-46;Berlin;52.60445;13.30937;;;;;;;;;;;;;
12P11;Alternativschule Berlin (Gemeinschaftsschule);13469;Bondickstr. 8-9;Berlin;52.60465;13.31543;;;;;;;;;;;;;
12P07;Private Goethe-Schulen;13435;Wittenauer Str. 112;Berlin;52.60636;13.34152;;;;;;;;;;;;;
12G17;Ellef-Ringnes-Grundschule;13503;Im Erpelgrund 11-17;Berlin;52.60799;13.23238;;;;;;;;;;;;;
03G40;Schule am Birkenhof;13127;Arnouxstr. 18;Berlin;52.60813;13.42421;;;;;;;;;;;;;
03S06;Schule am Birkenhof;13127;Arnouxstr. 18;Berlin;52.60813;13.42421;;;;;;;;;;;;;
12G19;Münchhausen-Grundschule;13469;Artemisstr. 22-26;Berlin;52.60848;13.31717;;;;;;;;;;;;;
12P04;Katholische Schule Salvator;13469;Fürst-Bismarck-Str. 8-10;Berlin;52.60935;13.3123;;;;;;;;;;;;;
12G28;Grundschule in den Rollbergen;13469;Waldshuter Zeile 6;Berlin;52.60955;13.33694;;;;;;;;;;;;;
03G23;Grundschule Alt-Karow;13125;Bahnhofstr. 32;Berlin;52.6096;13.47967;;;;;;;;;;;;;
12P10;Demokratische Schule X (Gemeinschaftsschule);13503;Keilerstr. 17 A;Berlin;52.61064;13.24856;;;;;;;;;;;;;
12P15;EJF - Fachschule für soziale Berufe;13503;Am Bärensprung 58;Berlin;52.61088;13.24805;;;;;;;;;;;;;
12G34;Otfried-Preußler-Grundschule;13503;Schulzendorfer Str. 99;Berlin;52.61307;13.22719;;;;;;;;;;;;;
12G22;Gustav-Dreyer-Grundschule;13467;Freiherr-vom-Stein-Str. 31;Berlin;52.61345;13.30373;;;;;;;;;;;;;
03G10;Grundschule am Hohen Feld;13125;Bedeweg 1;Berlin;52.61496;13.49631;;;;;;;;;;;;;
12G21;Grundschule am Fließtal;13467;Seebadstr. 42-43;Berlin;52.61524;13.32095;;;;;;;;;;;;;
12K09;Carl-Benz-Schule (Integrierte Sekundarschule);13467;Heidenheimer Str. 53-54;Berlin;52.61556;13.29901;;;;;;;;;;;;;
03Y16;Robert-Havemann-Gymnasium;13125;Achillesstr. 79;Berlin;52.61612;13.49279;;;;;;;;;;;;;
12Y05;Georg-Herwegh-Gymnasium;13467;Fellbacher Str. 18-19;Berlin;52.6168;13.30289;;;;;;;;;;;;;
03P23;Freie Naturschule im StadtGUT (Grundschule);13159;Hauptstr. 26;Berlin;52.61764;13.39261;;;;;;;;;;;;;
12P25;Elisabethstift-Schule;13467;Berliner Str. 118;Berlin;52.61799;13.31513;;;;;;;;;;;;;
03G35;Platanengrundschule;13159;Hauptstr. 20;Berlin;52.61816;13.38934;;;;;;;;;;;;;
12G20;Grundschule am Vierrutenberg;13469;Am Vierrutenberg 59-65;Berlin;52.61834;13.339;;;;;;;;;;;;;
12K11;Albrecht-Haushofer-Schule;13503;Kurzebracker Weg 40-46;Berlin;52.61882;13.22727;;;;;;;;;;;;;
12P06;Elisabethstift-Schule (Gemeinschaftsschule);13467;Falkentaler Steig 10;Berlin;52.62038;13.30295;;;;;;;;;;;;;
03G24;Grundschule im Panketal;13125;Achillesstr. 31;Berlin;52.62084;13.48626;;;;;;;;;;;;;
12K10;Carl-Bosch-Schule;13467;Frohnauer Str. 74-80;Berlin;52.6229;13.29322;;;;;;;;;;;;;
12S05;Wiesengrund-Schule;13467;Frohnauer Str. 74-80;Berlin;52.6229;13.29322;;;;;;;;;;;;;
03S10;Marianne-Buggenhagen-Schule;13125;Ernst-Busch-Str. 29;Berlin;52.62928;13.49146;;;;;;;;;;;;;
12P03;Evangelische Schule Frohnau;13465;Benediktinerstr. 11-19;Berlin;52.63146;13.2831;;;;;;;;;;;;;
03K10;Hufeland-Schule (Integrierte Sekundarschule);13125;Walter-Friedrich-Str. 16-18;Berlin;52.63332;13.49341;;;;;;;;;;;;;
12G24;Renée-Sintenis-Grundschule;13465;Laurinsteig 39-45;Berlin;52.63682;13.27248;;;;;;;;;;;;;
03G29;Grundschule Am Sandhaus;13125;Wiltbergstr. 37-39;Berlin;52.63726;13.49138;;;;;;;;;;;;;
12G23;Victor-Gollancz-Grundschule;13465;Gollanczstr. 18-24;Berlin;52.6382;13.28762;;;;;;;;;;;;;
03P33;Evangelische Schule Berlin Buch (Grundschule);13125;Wiltbergstr. 50;Berlin;52.63853;13.49044;;;;;;;;;;;;;
03P32;Montessori-Gemeinschaftsschule Berlin Buch;13125;Wiltbergstr. 90, Haus 23;Berlin;52.64106;13.48706;;;;;;;;;;;;;
